{
"type": "FeatureCollection",
"name": "buffer1",
"crs": { "type": "name", "properties": { "name": "urn:ogc:def:crs:OGC:1.3:CRS84" } },
"features": [
{ "type": "Feature", "properties": { "id": 1, "Area": 8892699.8911090009 }, "geometry": { "type": "MultiPolygon", "coordinates": [ [ [ [ 102.798944352938321, 16.486785556157574 ], [ 102.801260831491447, 16.488598849920493 ], [ 102.804051349097108, 16.489615956732752 ], [ 102.807031871396603, 16.489733356570856 ], [ 102.811454337953919, 16.489221421595552 ], [ 102.813797551901374, 16.488959408680422 ], [ 102.815311228724482, 16.488800113765858 ], [ 102.815359341097505, 16.488800009214401 ], [ 102.815359310966457, 16.488787102696062 ], [ 102.815610449656589, 16.488786610848415 ], [ 102.815982436146385, 16.488790143914738 ], [ 102.816074554094584, 16.488790580905178 ], [ 102.816241405977124, 16.488790579323105 ], [ 102.817418263875467, 16.489169886387231 ], [ 102.817840005545989, 16.489236952805459 ], [ 102.817882727704855, 16.489243648584754 ], [ 102.818607100660842, 16.489355517413973 ], [ 102.81877438933536, 16.489383442456266 ], [ 102.8210210331696, 16.489815298375497 ], [ 102.821842657164368, 16.489972864668971 ], [ 102.8237599155201, 16.490354893550339 ], [ 102.824202524291408, 16.49044484575084 ], [ 102.824263678240726, 16.490457068458568 ], [ 102.825652516907326, 16.490729983477745 ], [ 102.825784291393873, 16.490754927951794 ], [ 102.826856304601975, 16.490950150813692 ], [ 102.829545851917899, 16.491059455285161 ], [ 102.830289541353963, 16.490878680661314 ], [ 102.830322150041823, 16.490885557715011 ], [ 102.830611140578114, 16.490941913878515 ], [ 102.830614228040858, 16.490942467230532 ], [ 102.833341041261846, 16.491040447995658 ], [ 102.835981040597474, 16.490374687417617 ], [ 102.838309370051903, 16.489001897094209 ], [ 102.840127732280635, 16.487039005115918 ], [ 102.841281279054314, 16.484653192635498 ], [ 102.841671795287397, 16.482047651430271 ], [ 102.841669595071266, 16.481295259984705 ], [ 102.841625875279561, 16.481028324814254 ], [ 102.841631327269297, 16.480702907549361 ], [ 102.841631754702632, 16.480674649843184 ], [ 102.841639574775115, 16.48009550792019 ], [ 102.841639982182286, 16.480059959885288 ], [ 102.841643574887499, 16.479678513528139 ], [ 102.841646990369384, 16.479379210853821 ], [ 102.841650001105293, 16.479174383138282 ], [ 102.841650352073614, 16.479147728977139 ], [ 102.841652191042144, 16.47898968958317 ], [ 102.841655658331149, 16.478676953561738 ], [ 102.841657564239185, 16.478561935610777 ], [ 102.841658726056622, 16.478393751077633 ], [ 102.841658712759582, 16.478388921733515 ], [ 102.841658845410663, 16.478383568781208 ], [ 102.841660913189187, 16.478270445357627 ], [ 102.841663212015106, 16.478075274654667 ], [ 102.841663815754401, 16.477972335363532 ], [ 102.841663814897771, 16.477954577290312 ], [ 102.841666898510539, 16.477728611974886 ], [ 102.841666897028418, 16.477697845018881 ], [ 102.841666839810344, 16.477670551185948 ], [ 102.841669195908054, 16.477503335179044 ], [ 102.841669192572411, 16.477434144358778 ], [ 102.841669662971555, 16.4774025477485 ], [ 102.841670045422575, 16.477373631616455 ], [ 102.841672383151703, 16.477171492380144 ], [ 102.841673222314483, 16.477125772548469 ], [ 102.841674631114259, 16.476971845745872 ], [ 102.841677259357468, 16.476867619522004 ], [ 102.841679284748253, 16.476562052764407 ], [ 102.841679981635224, 16.476533948341824 ], [ 102.841574233276887, 16.475787348216233 ], [ 102.841570742467724, 16.475674855058063 ], [ 102.841634614086047, 16.475154212546542 ], [ 102.841611220610673, 16.474681611991567 ], [ 102.84160975754547, 16.474653007458869 ], [ 102.841589789178585, 16.474274796518174 ], [ 102.841538227487902, 16.473272906887836 ], [ 102.841513996152727, 16.472768010652928 ], [ 102.841511486943574, 16.472718652985719 ], [ 102.841463943025772, 16.471832998829527 ], [ 102.841430661628593, 16.471182184815831 ], [ 102.841421938477737, 16.47098777837726 ], [ 102.841416702655593, 16.470884730062703 ], [ 102.841386733516885, 16.47035664989631 ], [ 102.84138504289885, 16.470327711194081 ], [ 102.841366049379616, 16.470011630268942 ], [ 102.841354989306041, 16.469792640971207 ], [ 102.841352955565156, 16.469754071071872 ], [ 102.841229069366236, 16.467499587598802 ], [ 102.841220961278538, 16.467332225739522 ], [ 102.84115709187499, 16.465990690559529 ], [ 102.841156510771, 16.465978659753983 ], [ 102.841138267144274, 16.465606297737093 ], [ 102.841164499204538, 16.465349895003474 ], [ 102.841123269005507, 16.464532957214551 ], [ 102.841121104285079, 16.464491982709532 ], [ 102.841092157797192, 16.463967527111112 ], [ 102.84050624083352, 16.46126970893733 ], [ 102.840425603508905, 16.461062954440646 ], [ 102.838029313148013, 16.457622557654449 ], [ 102.837925897228601, 16.457530107142073 ], [ 102.835702067237492, 16.456054487191455 ], [ 102.833134093403771, 16.455253343286866 ], [ 102.830435964112013, 16.455193440049847 ], [ 102.830161354797369, 16.455225887462312 ], [ 102.830068767960611, 16.454500584137563 ], [ 102.830066444364377, 16.454482531522462 ], [ 102.830027362856853, 16.454181378939687 ], [ 102.829951459437794, 16.453595462733343 ], [ 102.829843252886093, 16.452758243158708 ], [ 102.829755465521245, 16.452080201651984 ], [ 102.829749353445692, 16.452033964999508 ], [ 102.829735940872268, 16.451934548166541 ], [ 102.829709952856646, 16.451733850294591 ], [ 102.829702550806857, 16.451678098469884 ], [ 102.829659152110182, 16.451359107463727 ], [ 102.829580789669748, 16.450752692784725 ], [ 102.829502129666267, 16.450141851978152 ], [ 102.829499612053937, 16.450122472573753 ], [ 102.829402953801562, 16.449384906589291 ], [ 102.829395186714507, 16.449327137216258 ], [ 102.829357291812428, 16.449052243532144 ], [ 102.829284967176278, 16.448507057872309 ], [ 102.829199678142203, 16.44783110786943 ], [ 102.829193089341828, 16.447780100163602 ], [ 102.829152724820332, 16.447474704728872 ], [ 102.829116576417178, 16.447199100943536 ], [ 102.829113100182397, 16.447170772900236 ], [ 102.82908490812855, 16.446961936752832 ], [ 102.829072579782732, 16.446878250272096 ], [ 102.828923469610757, 16.446464060941516 ], [ 102.828793164426884, 16.445400153517376 ], [ 102.828759644018405, 16.445038310991162 ], [ 102.828748882414487, 16.444929569420164 ], [ 102.828717317656384, 16.444629806707269 ], [ 102.828613059348072, 16.443641683630158 ], [ 102.828609676391039, 16.443610170071711 ], [ 102.828573167462736, 16.443275803268435 ], [ 102.828566339125871, 16.443198347578114 ], [ 102.828545672459569, 16.442992014349691 ], [ 102.828533230300906, 16.442881113618839 ], [ 102.828513756312859, 16.442686585257668 ], [ 102.828509009565934, 16.442640410194752 ], [ 102.828490268007883, 16.442462749105584 ], [ 102.828486833482287, 16.442430757445841 ], [ 102.828473787943025, 16.442311319115337 ], [ 102.828457738712444, 16.442159168529905 ], [ 102.828440141122485, 16.441984141954446 ], [ 102.828437644572546, 16.441959658429141 ], [ 102.828418163034002, 16.441771240047657 ], [ 102.828414487382801, 16.441736375927725 ], [ 102.828397092758664, 16.441574507558283 ], [ 102.828364137940383, 16.441260866117577 ], [ 102.828361886918387, 16.441239691276635 ], [ 102.828271632321119, 16.440400433282282 ], [ 102.827456807632373, 16.437542050552764 ], [ 102.825725939191727, 16.435092885242057 ], [ 102.823265949111999, 16.433317397833104 ], [ 102.820342468058243, 16.432407304295246 ], [ 102.820305103782289, 16.432407956347188 ], [ 102.820303865654395, 16.432407551277144 ], [ 102.817333083143566, 16.432385554216374 ], [ 102.816963481112097, 16.43244016007138 ], [ 102.816894108880774, 16.432450666726972 ], [ 102.813467740469946, 16.432982306522508 ], [ 102.81312765569578, 16.433096199288183 ], [ 102.812607426937475, 16.43310301772518 ], [ 102.810538389503918, 16.433418786431186 ], [ 102.809850667310684, 16.433520045631326 ], [ 102.809838136166988, 16.433521899069611 ], [ 102.808210482231985, 16.43376372359365 ], [ 102.805474615791525, 16.434600349960927 ], [ 102.803130637800606, 16.436198543571752 ], [ 102.801399479495046, 16.438407682421332 ], [ 102.800444331654234, 16.441019554525859 ], [ 102.800355256399783, 16.443787978015191 ], [ 102.800395667382176, 16.444103239402047 ], [ 102.800399195343232, 16.444130423432149 ], [ 102.800410397113168, 16.44421568635126 ], [ 102.800555390799815, 16.445375921875605 ], [ 102.798887270577211, 16.44745112103616 ], [ 102.798799472632851, 16.447687662926505 ], [ 102.798272127997137, 16.447842178140018 ], [ 102.795892932957543, 16.449431740974315 ], [ 102.794131393323383, 16.451647265141787 ], [ 102.793156303040575, 16.454276491715671 ], [ 102.793061121076434, 16.457067514337076 ], [ 102.793227939217658, 16.458375041023309 ], [ 102.79353197086354, 16.460750154378612 ], [ 102.793832752508848, 16.463081864496409 ], [ 102.793983752080678, 16.464259382404034 ], [ 102.794447698648753, 16.467867897325483 ], [ 102.794600587197777, 16.46906589485765 ], [ 102.795011392503525, 16.472703299665888 ], [ 102.795023563497352, 16.472805633626937 ], [ 102.795055103437448, 16.47305808863462 ], [ 102.795080441153729, 16.473244525450315 ], [ 102.795378116898007, 16.47527077402167 ], [ 102.795458861476988, 16.47573345181744 ], [ 102.795704531428385, 16.47694745204868 ], [ 102.796241948571677, 16.479615303445748 ], [ 102.796460345574332, 16.480782158472682 ], [ 102.796673577432728, 16.482133278986431 ], [ 102.797457809956299, 16.484618203790404 ], [ 102.79894339134475, 16.486784517337416 ], [ 102.798944352938321, 16.486785556157574 ] ] ] ] } }
]
}
