{
"type": "FeatureCollection",
"name": "busstop",
"crs": { "type": "name", "properties": { "name": "urn:ogc:def:crs:OGC:1.3:CRS84" } },
"features": [
{ "type": "Feature", "properties": { "id": 1, "name_t": "ประตูสีฐาน", "name_e": "Si Than Gate", "latitude": 16.4428401, "longitude": 102.8145551 }, "geometry": { "type": "Point", "coordinates": [ 102.8145551, 16.4428401 ] } },
{ "type": "Feature", "properties": { "id": 2, "name_t": "พิพิธภัณฑ์ธรรมชาติวิทยา", "name_e": "Natural History Museum", "latitude": 16.445778, "longitude": 102.8115334 }, "geometry": { "type": "Point", "coordinates": [ 102.8115334, 16.445778 ] } },
{ "type": "Feature", "properties": { "id": 3, "name_t": "สถานีชาร์จรถไฟฟ้า", "name_e": "EV Bus Station", "latitude": 16.4656916, "longitude": 102.8081586 }, "geometry": { "type": "Point", "coordinates": [ 102.8081586, 16.4656916 ] } },
{ "type": "Feature", "properties": { "id": 4, "name_t": "เรือนพักญาติ", "name_e": "Relative Accomdation 2", "latitude": 16.4761853, "longitude": 102.8127117 }, "geometry": { "type": "Point", "coordinates": [ 102.8127117, 16.4761853 ] } },
{ "type": "Feature", "properties": { "id": 5, "name_t": "หออินเตอร์2", "name_e": "International Dormitory 2", "latitude": 16.4786356, "longitude": 102.8108956 }, "geometry": { "type": "Point", "coordinates": [ 102.8108956, 16.4786356 ] } },
{ "type": "Feature", "properties": { "id": 6, "name_t": "หอ8หลัง2", "name_e": "The 8 dormitory block 2", "latitude": 16.4787849, "longitude": 102.8097449 }, "geometry": { "type": "Point", "coordinates": [ 102.8097449, 16.4787849 ] } },
{ "type": "Feature", "properties": { "id": 7, "name_t": "หมู่บ้านสวนมอ", "name_e": "Suan Mor Res", "latitude": 16.4798146, "longitude": 102.805169 }, "geometry": { "type": "Point", "coordinates": [ 102.805169, 16.4798146 ] } },
{ "type": "Feature", "properties": { "id": 8, "name_t": "หอ9หลัง", "name_e": "The 9 dormitory block", "latitude": 16.479723, "longitude": 102.8070818 }, "geometry": { "type": "Point", "coordinates": [ 102.8070818, 16.479723 ] } },
{ "type": "Feature", "properties": { "id": 9, "name_t": "ลานจอดหอ8หลัง", "name_e": "The 8 dormitory block Parking Lot", "latitude": 16.4791864, "longitude": 102.8084219 }, "geometry": { "type": "Point", "coordinates": [ 102.8084219, 16.4791864 ] } },
{ "type": "Feature", "properties": { "id": 10, "name_t": "หอ8หลัง", "name_e": "The 8 dormitory block ", "latitude": 16.4789488, "longitude": 102.8098366 }, "geometry": { "type": "Point", "coordinates": [ 102.8098366, 16.4789488 ] } },
{ "type": "Feature", "properties": { "id": 11, "name_t": "หออินเตอร์", "name_e": "International Dormitory", "latitude": 16.4787832, "longitude": 102.8112355 }, "geometry": { "type": "Point", "coordinates": [ 102.8112355, 16.4787832 ] } },
{ "type": "Feature", "properties": { "id": 12, "name_t": "วิมานดิน", "name_e": "wi man din", "latitude": 16.4807167, "longitude": 102.8070105 }, "geometry": { "type": "Point", "coordinates": [ 102.8070105, 16.4807167 ] } },
{ "type": "Feature", "properties": { "id": 13, "name_t": "โกลเด้นลิฟวิ่ง", "name_e": "Golden Living", "latitude": 16.4803748, "longitude": 102.8102408 }, "geometry": { "type": "Point", "coordinates": [ 102.8102408, 16.4803748 ] } },
{ "type": "Feature", "properties": { "id": 14, "name_t": "เซเว่นวัดป่าโนนม่วง", "name_e": "Seven Eleven Wat Pa Non Muang  Branch ", "latitude": 16.4801958, "longitude": 102.8118772 }, "geometry": { "type": "Point", "coordinates": [ 102.8118772, 16.4801958 ] } },
{ "type": "Feature", "properties": { "id": 15, "name_t": "ร้านพู่กัน", "name_e": "Phu Kan ", "latitude": 16.4798833, "longitude": 102.8147006 }, "geometry": { "type": "Point", "coordinates": [ 102.8147006, 16.4798833 ] } },
{ "type": "Feature", "properties": { "id": 16, "name_t": "ร้านพอดี", "name_e": "Pordee ", "latitude": 16.4799998, "longitude": 102.8135372 }, "geometry": { "type": "Point", "coordinates": [ 102.8135372, 16.4799998 ] } },
{ "type": "Feature", "properties": { "id": 17, "name_t": "มอแดงเพลส", "name_e": "Morang Place", "latitude": 16.4804003, "longitude": 102.8156575 }, "geometry": { "type": "Point", "coordinates": [ 102.8156575, 16.4804003 ] } },
{ "type": "Feature", "properties": { "id": 18, "name_t": "ร้านชบาน์", "name_e": "Chaba ", "latitude": 16.4817486, "longitude": 102.815996 }, "geometry": { "type": "Point", "coordinates": [ 102.815996, 16.4817486 ] } },
{ "type": "Feature", "properties": { "id": 19, "name_t": "เคี้ยงสาขาโนนม่วง", "name_e": "Kieng Non Muang Branch", "latitude": 16.4832825, "longitude": 102.816253 }, "geometry": { "type": "Point", "coordinates": [ 102.816253, 16.4832825 ] } },
{ "type": "Feature", "properties": { "id": 20, "name_t": "ซอยอิงมอ", "name_e": "Ing Mor Soi", "latitude": 16.4840496, "longitude": 102.8162694 }, "geometry": { "type": "Point", "coordinates": [ 102.8162694, 16.4840496 ] } },
{ "type": "Feature", "properties": { "id": 21, "name_t": "กินกับไก่", "name_e": "Kin Kap Kai", "latitude": 16.4851936, "longitude": 102.8162515 }, "geometry": { "type": "Point", "coordinates": [ 102.8162515, 16.4851936 ] } },
{ "type": "Feature", "properties": { "id": 22, "name_t": "ครัวริมหนน", "name_e": "Krua Rim Non", "latitude": 16.4857988, "longitude": 102.8167854 }, "geometry": { "type": "Point", "coordinates": [ 102.8167854, 16.4857988 ] } },
{ "type": "Feature", "properties": { "id": 23, "name_t": "เกษียรสินธุ์ปาร์ค", "name_e": "Kasetsin Park", "latitude": 16.484304, "longitude": 102.8181572 }, "geometry": { "type": "Point", "coordinates": [ 102.8181572, 16.484304 ] } },
{ "type": "Feature", "properties": { "id": 24, "name_t": "พิมานคอนโด", "name_e": "Piman Condo", "latitude": 16.4831249, "longitude": 102.8191667 }, "geometry": { "type": "Point", "coordinates": [ 102.8191667, 16.4831249 ] } },
{ "type": "Feature", "properties": { "id": 25, "name_t": "อาม่ามอล", "name_e": "Ama Mall", "latitude": 16.4807005, "longitude": 102.8204961 }, "geometry": { "type": "Point", "coordinates": [ 102.8204961, 16.4807005 ] } },
{ "type": "Feature", "properties": { "id": 26, "name_t": "ยูเซ็นเตอร์", "name_e": "U Center", "latitude": 16.4800291, "longitude": 102.8190594 }, "geometry": { "type": "Point", "coordinates": [ 102.8190594, 16.4800291 ] } },
{ "type": "Feature", "properties": { "id": 27, "name_t": "ปั๊มปตท", "name_e": "Bangchak Station", "latitude": 16.4783744, "longitude": 102.8140001 }, "geometry": { "type": "Point", "coordinates": [ 102.8140001, 16.4783744 ] } },
{ "type": "Feature", "properties": { "id": 28, "name_t": "สนามฟันดาบ", "name_e": "Fencing Gym", "latitude": 16.4782176, "longitude": 102.8139806 }, "geometry": { "type": "Point", "coordinates": [ 102.8139806, 16.4782176 ] } },
{ "type": "Feature", "properties": { "id": 29, "name_t": "หอชายที่8", "name_e": "Male Dormitory 8", "latitude": 16.477833, "longitude": 102.8185445 }, "geometry": { "type": "Point", "coordinates": [ 102.8185445, 16.477833 ] } },
{ "type": "Feature", "properties": { "id": 30, "name_t": "โรงยิมเก่า", "name_e": "Old Gymnasium", "latitude": 16.4775971, "longitude": 102.8187264 }, "geometry": { "type": "Point", "coordinates": [ 102.8187264, 16.4775971 ] } },
{ "type": "Feature", "properties": { "id": 31, "name_t": "โรงชาย", "name_e": "Male Dormitory Cafeteria", "latitude": 16.4776759, "longitude": 102.8200824 }, "geometry": { "type": "Point", "coordinates": [ 102.8200824, 16.4776759 ] } },
{ "type": "Feature", "properties": { "id": 32, "name_t": "คณะเกษตรศาสตร์", "name_e": "Agriculture Fac1", "latitude": 16.4773337, "longitude": 102.8208231 }, "geometry": { "type": "Point", "coordinates": [ 102.8208231, 16.4773337 ] } },
{ "type": "Feature", "properties": { "id": 33, "name_t": "ข้างหอสมุด", "name_e": "Beside the Library", "latitude": 16.4769523, "longitude": 102.8227424 }, "geometry": { "type": "Point", "coordinates": [ 102.8227424, 16.4769523 ] } },
{ "type": "Feature", "properties": { "id": 34, "name_t": "หน้าหอสมุด", "name_e": "The KKU Library ", "latitude": 16.4770593, "longitude": 102.8230189 }, "geometry": { "type": "Point", "coordinates": [ 102.8230189, 16.4770593 ] } },
{ "type": "Feature", "properties": { "id": 35, "name_t": "คอมเพล็กซ์", "name_e": "Complex", "latitude": 16.4772612, "longitude": 102.8235508 }, "geometry": { "type": "Point", "coordinates": [ 102.8235508, 16.4772612 ] } },
{ "type": "Feature", "properties": { "id": 36, "name_t": "แฟลตจามจุรี", "name_e": "Chamchuri Flats", "latitude": 16.4772036, "longitude": 102.8248532 }, "geometry": { "type": "Point", "coordinates": [ 102.8248532, 16.4772036 ] } },
{ "type": "Feature", "properties": { "id": 37, "name_t": "ตรงข้ามคณะมนุษย์", "name_e": "Opposite The Humanities Fac", "latitude": 16.4768178, "longitude": 102.8270368 }, "geometry": { "type": "Point", "coordinates": [ 102.8270368, 16.4768178 ] } },
{ "type": "Feature", "properties": { "id": 38, "name_t": "สนามวอลเล่ย์บอล", "name_e": "Volleyball Court", "latitude": 16.4783182, "longitude": 102.8230978 }, "geometry": { "type": "Point", "coordinates": [ 102.8230978, 16.4783182 ] } },
{ "type": "Feature", "properties": { "id": 39, "name_t": "คณะวิทยาศาสตร์", "name_e": "Sciences Fac", "latitude": 16.4766682, "longitude": 102.8264408 }, "geometry": { "type": "Point", "coordinates": [ 102.8264408, 16.4766682 ] } },
{ "type": "Feature", "properties": { "id": 40, "name_t": "ประตูมอดินแดง", "name_e": "Mo Din Daeng Gate", "latitude": 16.4760179, "longitude": 102.8313323 }, "geometry": { "type": "Point", "coordinates": [ 102.8313323, 16.4760179 ] } },
{ "type": "Feature", "properties": { "id": 41, "name_t": "โรงแรมบายาสิตา", "name_e": "Baiyassita Hotel", "latitude": 16.4768887, "longitude": 102.8318343 }, "geometry": { "type": "Point", "coordinates": [ 102.8318343, 16.4768887 ] } },
{ "type": "Feature", "properties": { "id": 42, "name_t": "ศาลเจ้าพ่อมอดินแดง", "name_e": "Mo Din Daeng Shrine", "latitude": 16.4775184, "longitude": 102.8320957 }, "geometry": { "type": "Point", "coordinates": [ 102.8320957, 16.4775184 ] } },
{ "type": "Feature", "properties": { "id": 43, "name_t": "คณะสัตว์แพทย์", "name_e": "Veterinary Fac", "latitude": 16.4788509, "longitude": 102.8319005 }, "geometry": { "type": "Point", "coordinates": [ 102.8319005, 16.4788509 ] } },
{ "type": "Feature", "properties": { "id": 44, "name_t": "โรงเรียนสาธิตมอดินแดง", "name_e": "SMD School", "latitude": 16.4805281, "longitude": 102.831827 }, "geometry": { "type": "Point", "coordinates": [ 102.831827, 16.4805281 ] } },
{ "type": "Feature", "properties": { "id": 45, "name_t": "ตรงข้ามวิทยาลัยการปกครองท้องถิ่น", "name_e": "Opposite The COPA KKU", "latitude": 16.4736285, "longitude": 102.8317339 }, "geometry": { "type": "Point", "coordinates": [ 102.8317339, 16.4736285 ] } },
{ "type": "Feature", "properties": { "id": 46, "name_t": "สถาบันขงจื่อ", "name_e": "Confucius Institute", "latitude": 16.474525, "longitude": 102.8301412 }, "geometry": { "type": "Point", "coordinates": [ 102.8301412, 16.474525 ] } },
{ "type": "Feature", "properties": { "id": 47, "name_t": "สถาบันลุ่มน้ำโขง", "name_e": "Mekong Institute", "latitude": 16.4746694, "longitude": 102.828175 }, "geometry": { "type": "Point", "coordinates": [ 102.828175, 16.4746694 ] } },
{ "type": "Feature", "properties": { "id": 48, "name_t": "ตรงข้ามคณะบริหารธุรกิจ", "name_e": "Opposite The KKBS KKU", "latitude": 16.4746187, "longitude": 102.825421 }, "geometry": { "type": "Point", "coordinates": [ 102.825421, 16.4746187 ] } },
{ "type": "Feature", "properties": { "id": 49, "name_t": "หน้าโรงอาหารคณะบริหารธุรกิจ", "name_e": "In Front of The KKBS Fac Cafeteria", "latitude": 16.4740804, "longitude": 102.8266708 }, "geometry": { "type": "Point", "coordinates": [ 102.8266708, 16.4740804 ] } },
{ "type": "Feature", "properties": { "id": 50, "name_t": "ตรงข้ามคณะสถาปัตย์", "name_e": "Opposite The Architecture Fac", "latitude": 16.4724142, "longitude": 102.8281467 }, "geometry": { "type": "Point", "coordinates": [ 102.8281467, 16.4724142 ] } },
{ "type": "Feature", "properties": { "id": 51, "name_t": "หน้าคณะสถาปัตย์", "name_e": "In Front of  The Architecture Fac", "latitude": 16.472362, "longitude": 102.8279733 }, "geometry": { "type": "Point", "coordinates": [ 102.8279733, 16.472362 ] } },
{ "type": "Feature", "properties": { "id": 52, "name_t": "หน้าอาคารเวชวิชชาคาร", "name_e": "In Front of Wetchawichakan Building", "latitude": 16.4699318, "longitude": 102.8280991 }, "geometry": { "type": "Point", "coordinates": [ 102.8280991, 16.4699318 ] } },
{ "type": "Feature", "properties": { "id": 53, "name_t": "หน้าคณะเภสัชศาสตร์", "name_e": "In Front of the Pharmaceutical Fac", "latitude": 16.469478, "longitude": 102.8278911 }, "geometry": { "type": "Point", "coordinates": [ 102.8278911, 16.469478 ] } },
{ "type": "Feature", "properties": { "id": 54, "name_t": "บ้านพักหนองแวง", "name_e": "Nong Waeng Housing", "latitude": 16.465531, "longitude": 102.8278021 }, "geometry": { "type": "Point", "coordinates": [ 102.8278021, 16.465531 ] } },
{ "type": "Feature", "properties": { "id": 55, "name_t": "แฟลต14", "name_e": "Flat 14", "latitude": 16.4657739, "longitude": 102.8285287 }, "geometry": { "type": "Point", "coordinates": [ 102.8285287, 16.4657739 ] } },
{ "type": "Feature", "properties": { "id": 56, "name_t": "หลังศูนย์หัวใจสิริกิติ์", "name_e": "Behind Queen Sirikit Heart Center", "latitude": 16.466358, "longitude": 102.8306381 }, "geometry": { "type": "Point", "coordinates": [ 102.8306381, 16.466358 ] } },
{ "type": "Feature", "properties": { "id": 57, "name_t": "หน้าอาคารกัลยานิวัฒนานุสรณ์", "name_e": "In Front of Kalyaniwattana Anusorn Building", "latitude": 16.4679539, "longitude": 102.8308226 }, "geometry": { "type": "Point", "coordinates": [ 102.8308226, 16.4679539 ] } },
{ "type": "Feature", "properties": { "id": 58, "name_t": "หน้าอาคารเรียนรวมคณะแพทย์", "name_e": "In Front of the Medicine Lecture Hall", "latitude": 16.46921, "longitude": 102.8314992 }, "geometry": { "type": "Point", "coordinates": [ 102.8314992, 16.46921 ] } },
{ "type": "Feature", "properties": { "id": 59, "name_t": "ศูนย์อาหารหนองแวง", "name_e": "Nong Waeng Food Center", "latitude": 16.466235, "longitude": 102.8259396 }, "geometry": { "type": "Point", "coordinates": [ 102.8259396, 16.466235 ] } },
{ "type": "Feature", "properties": { "id": 60, "name_t": "คณะเทคนิคการแพทย์", "name_e": "Medical Technology Fac", "latitude": 16.4682403, "longitude": 102.8263328 }, "geometry": { "type": "Point", "coordinates": [ 102.8263328, 16.4682403 ] } },
{ "type": "Feature", "properties": { "id": 61, "name_t": "แฟลตศูนย์แพทย์", "name_e": "Medical Center Flats", "latitude": 16.4683301, "longitude": 102.8249713 }, "geometry": { "type": "Point", "coordinates": [ 102.8249713, 16.4683301 ] } },
{ "type": "Feature", "properties": { "id": 62, "name_t": "หมู่บ้านศูนย์แพทย์4", "name_e": "Medical Center Village 4", "latitude": 16.4674466, "longitude": 102.81996 }, "geometry": { "type": "Point", "coordinates": [ 102.81996, 16.4674466 ] } },
{ "type": "Feature", "properties": { "id": 63, "name_t": "หมู่บ้านศูนย์แพทย์1", "name_e": "Medical Center Village 1", "latitude": 16.4675979, "longitude": 102.8198558 }, "geometry": { "type": "Point", "coordinates": [ 102.8198558, 16.4675979 ] } },
{ "type": "Feature", "properties": { "id": 64, "name_t": "หอพักคณะพยาบาล", "name_e": "Faculty of Nursing Dormitory", "latitude": 16.468375, "longitude": 102.8174797 }, "geometry": { "type": "Point", "coordinates": [ 102.8174797, 16.468375 ] } },
{ "type": "Feature", "properties": { "id": 65, "name_t": "หน้าศิลปกรรมศาสตร์", "name_e": "In Front of the Fine and Applied Arts Fac", "latitude": 16.4685887, "longitude": 102.8174539 }, "geometry": { "type": "Point", "coordinates": [ 102.8174539, 16.4685887 ] } },
{ "type": "Feature", "properties": { "id": 66, "name_t": "วงเวียนตึกอธิการ", "name_e": "Administration Building Roundabout", "latitude": 16.4690152, "longitude": 102.8160365 }, "geometry": { "type": "Point", "coordinates": [ 102.8160365, 16.4690152 ] } },
{ "type": "Feature", "properties": { "id": 67, "name_t": "วงเวียนหน้าอาคารสิริคุณากร", "name_e": "Sirikunakorn Building Roundabout", "latitude": 16.4699468, "longitude": 102.816352 }, "geometry": { "type": "Point", "coordinates": [ 102.816352, 16.4699468 ] } },
{ "type": "Feature", "properties": { "id": 68, "name_t": "คณะเทคโนโลยี", "name_e": "Technology Fac", "latitude": 16.4740869, "longitude": 102.8206883 }, "geometry": { "type": "Point", "coordinates": [ 102.8206883, 16.4740869 ] } },
{ "type": "Feature", "properties": { "id": 69, "name_t": "อาคารพลศึกษา", "name_e": "Physical Education Building", "latitude": 16.4769304, "longitude": 102.8193317 }, "geometry": { "type": "Point", "coordinates": [ 102.8193317, 16.4769304 ] } },
{ "type": "Feature", "properties": { "id": 70, "name_t": "ลานกีฬาฝั่งสี่สนาม", "name_e": "Four Court Sports Field", "latitude": 16.4763314, "longitude": 102.8162034 }, "geometry": { "type": "Point", "coordinates": [ 102.8162034, 16.4763314 ] } },
{ "type": "Feature", "properties": { "id": 71, "name_t": "ลานกีฬา", "name_e": "Sports Field", "latitude": 16.4763274, "longitude": 102.8160163 }, "geometry": { "type": "Point", "coordinates": [ 102.8160163, 16.4763274 ] } },
{ "type": "Feature", "properties": { "id": 72, "name_t": "แปลงเกษตร", "name_e": "Agricultural Plot", "latitude": 16.4732002, "longitude": 102.8163689 }, "geometry": { "type": "Point", "coordinates": [ 102.8163689, 16.4732002 ] } },
{ "type": "Feature", "properties": { "id": 73, "name_t": "แปลงเกษตร2", "name_e": "Agricultural Plot 2", "latitude": 16.4732325, "longitude": 102.8165121 }, "geometry": { "type": "Point", "coordinates": [ 102.8165121, 16.4732325 ] } },
{ "type": "Feature", "properties": { "id": 74, "name_t": "หน้าอาคารสิริคุณากร", "name_e": "In Front of Sirikunakorn Building", "latitude": 16.4703988, "longitude": 102.8152409 }, "geometry": { "type": "Point", "coordinates": [ 102.8152409, 16.4703988 ] } },
{ "type": "Feature", "properties": { "id": 75, "name_t": "ข้างร้านผลิตภัณฑ์คณะเกษตร", "name_e": "Agriculture Products Shop", "latitude": 16.4674808, "longitude": 102.8146078 }, "geometry": { "type": "Point", "coordinates": [ 102.8146078, 16.4674808 ] } },
{ "type": "Feature", "properties": { "id": 76, "name_t": "ตรงข้ามอุทยานการเกษตร", "name_e": "Opposite the Agricultural Park", "latitude": 16.4657378, "longitude": 102.8153982 }, "geometry": { "type": "Point", "coordinates": [ 102.8153982, 16.4657378 ] } },
{ "type": "Feature", "properties": { "id": 77, "name_t": "หน้าอุทยานการเกษตร", "name_e": "In Front of the Agricultural Park", "latitude": 16.4657498, "longitude": 102.8152408 }, "geometry": { "type": "Point", "coordinates": [ 102.8152408, 16.4657498 ] } },
{ "type": "Feature", "properties": { "id": 78, "name_t": "แฟลตปาดู่1", "name_e": "Padhu Flat 1", "latitude": 16.4533037, "longitude": 102.8152652 }, "geometry": { "type": "Point", "coordinates": [ 102.8152652, 16.4533037 ] } },
{ "type": "Feature", "properties": { "id": 79, "name_t": "แฟลตปาดู่2", "name_e": "Padhu Flat 2", "latitude": 16.4533036, "longitude": 102.8154927 }, "geometry": { "type": "Point", "coordinates": [ 102.8154927, 16.4533036 ] } },
{ "type": "Feature", "properties": { "id": 80, "name_t": "หน้าคณะนิติศาสตร์", "name_e": "Law Fac", "latitude": 16.4498632, "longitude": 102.8154474 }, "geometry": { "type": "Point", "coordinates": [ 102.8154474, 16.4498632 ] } },
{ "type": "Feature", "properties": { "id": 81, "name_t": "ศูนย์ประชุมหอกาญจนาภิเษก", "name_e": "Golden Jubilee Convention Hall", "latitude": 16.4465954, "longitude": 102.8152352 }, "geometry": { "type": "Point", "coordinates": [ 102.8152352, 16.4465954 ] } },
{ "type": "Feature", "properties": { "id": 82, "name_t": "ตรงข้ามศูนย์ประชุมหอกาญจนาภิเษก", "name_e": "Opposite the Golden Jubilee Convention Hall", "latitude": 16.4466243, "longitude": 102.8150828 }, "geometry": { "type": "Point", "coordinates": [ 102.8150828, 16.4466243 ] } },
{ "type": "Feature", "properties": { "id": 83, "name_t": "เฟรชชี่สไมล์", "name_e": "Freshy Smile", "latitude": 16.4574168, "longitude": 102.8280875 }, "geometry": { "type": "Point", "coordinates": [ 102.8280875, 16.4574168 ] } },
{ "type": "Feature", "properties": { "id": 84, "name_t": "ตรงข้ามเดวาคาเฟ่", "name_e": "Opposite Deva Cafe", "latitude": 16.4577777, "longitude": 102.8280694 }, "geometry": { "type": "Point", "coordinates": [ 102.8280694, 16.4577777 ] } },
{ "type": "Feature", "properties": { "id": 85, "name_t": "หน้าร้านยัวร์สไมล์", "name_e": "Your Smile Shop", "latitude": 16.4585086, "longitude": 102.8279561 }, "geometry": { "type": "Point", "coordinates": [ 102.8279561, 16.4585086 ] } },
{ "type": "Feature", "properties": { "id": 86, "name_t": "บึงหนองแวง", "name_e": "Nong Waeng Lake", "latitude": 16.4587587, "longitude": 102.8281749 }, "geometry": { "type": "Point", "coordinates": [ 102.8281749, 16.4587587 ] } },
{ "type": "Feature", "properties": { "id": 87, "name_t": "ตรงข้ามร้านพรพระเบเกอร์มอลล์", "name_e": "Opposite Pornprapa Bakery Mall", "latitude": 16.4608815, "longitude": 102.8278774 }, "geometry": { "type": "Point", "coordinates": [ 102.8278774, 16.4608815 ] } },
{ "type": "Feature", "properties": { "id": 88, "name_t": "หน้าร้านพรพระเบเกอร์มอลล์", "name_e": "In Front of Pornprapa Bakery Mall", "latitude": 16.4608291, "longitude": 102.8280095 }, "geometry": { "type": "Point", "coordinates": [ 102.8280095, 16.4608291 ] } },
{ "type": "Feature", "properties": { "id": 89, "name_t": "ตรงข้ามร้านเจเค", "name_e": "Opposite JK Shop", "latitude": 16.4633441, "longitude": 102.8276493 }, "geometry": { "type": "Point", "coordinates": [ 102.8276493, 16.4633441 ] } },
{ "type": "Feature", "properties": { "id": 90, "name_t": "หน้าร้านเจเค", "name_e": "In Front of JK Shop", "latitude": 16.4632778, "longitude": 102.8275366 }, "geometry": { "type": "Point", "coordinates": [ 102.8275366, 16.4632778 ] } },
{ "type": "Feature", "properties": { "id": 91, "name_t": "ตรงข้ามสาธารณสุข", "name_e": "Opposite Public Health Office", "latitude": 16.4710786, "longitude": 102.8264278 }, "geometry": { "type": "Point", "coordinates": [ 102.8264278, 16.4710786 ] } },
{ "type": "Feature", "properties": { "id": 92, "name_t": "หน้าโรงอาหารคณะพยาบาล", "name_e": "Nursing Fac Cafeteria", "latitude": 16.4701974, "longitude": 102.8244943 }, "geometry": { "type": "Point", "coordinates": [ 102.8244943, 16.4701974 ] } },
{ "type": "Feature", "properties": { "id": 93, "name_t": "หน้าอาคารคณะพยาบาลศาสตร์", "name_e": "Nursing Fac Building", "latitude": 16.4697482, "longitude": 102.8245791 }, "geometry": { "type": "Point", "coordinates": [ 102.8245791, 16.4697482 ] } },
{ "type": "Feature", "properties": { "id": 94, "name_t": "หอพักนักศึกษาแพทย์", "name_e": "Medical Student Dormitory", "latitude": 16.4709024, "longitude": 102.8234859 }, "geometry": { "type": "Point", "coordinates": [ 102.8234859, 16.4709024 ] } },
{ "type": "Feature", "properties": { "id": 95, "name_t": "คณะวิศวกรรมอุตสาหการ", "name_e": "Industrial Engineering Fac", "latitude": 16.4713477, "longitude": 102.8226053 }, "geometry": { "type": "Point", "coordinates": [ 102.8226053, 16.4713477 ] } },
{ "type": "Feature", "properties": { "id": 96, "name_t": "หน้าหอพักทันตะ", "name_e": "In Front of Dental Dormitory", "latitude": 16.471598, "longitude": 102.8220328 }, "geometry": { "type": "Point", "coordinates": [ 102.8220328, 16.471598 ] } },
{ "type": "Feature", "properties": { "id": 97, "name_t": "ตรงข้ามคณะเทคโนโลยี", "name_e": "Opposite The Technology Fac", "latitude": 16.4732349, "longitude": 102.821825 }, "geometry": { "type": "Point", "coordinates": [ 102.821825, 16.4732349 ] } }
]
}
