{
"type": "FeatureCollection",
"name": "entertain",
"crs": { "type": "name", "properties": { "name": "urn:ogc:def:crs:OGC:1.3:CRS84" } },
"features": [
{ "type": "Feature", "properties": { "id": 1, "name_t": "เชด", "name_e": "Shade", "latitude": 16.4316654, "longitude": 102.8304823 }, "geometry": { "type": "Point", "coordinates": [ 102.8304823, 16.4316654 ] } },
{ "type": "Feature", "properties": { "id": 2, "name_t": "ไนน์ตี้ไนน์ บาร์", "name_e": "99 Bar", "latitude": 16.4285042, "longitude": 102.8285028 }, "geometry": { "type": "Point", "coordinates": [ 102.8285028, 16.4285042 ] } },
{ "type": "Feature", "properties": { "id": 3, "name_t": "มอลลี่ส์ บาร์", "name_e": "Molly’s Bar", "latitude": 16.4294374, "longitude": 102.8418069 }, "geometry": { "type": "Point", "coordinates": [ 102.8418069, 16.4294374 ] } },
{ "type": "Feature", "properties": { "id": 4, "name_t": "บรู๊กลิน บาร์", "name_e": "Brooklyn Bar", "latitude": 16.4312673, "longitude": 102.8299889 }, "geometry": { "type": "Point", "coordinates": [ 102.8299889, 16.4312673 ] } },
{ "type": "Feature", "properties": { "id": 5, "name_t": "ฮิดเดน ทาวน์", "name_e": "Hidden Town", "latitude": 16.4302372, "longitude": 102.8360688 }, "geometry": { "type": "Point", "coordinates": [ 102.8360688, 16.4302372 ] } },
{ "type": "Feature", "properties": { "id": 6, "name_t": "โรงเหล้ามิตรภาพ ขอนแก่น", "name_e": "Mittraphap Liquor House Khon Kaen", "latitude": 16.4245733, "longitude": 102.8223303 }, "geometry": { "type": "Point", "coordinates": [ 102.8223303, 16.4245733 ] } },
{ "type": "Feature", "properties": { "id": 7, "name_t": "บ็อบบี้ บาร์", "name_e": "Bobby Bar", "latitude": 16.4276027, "longitude": 102.8230374 }, "geometry": { "type": "Point", "coordinates": [ 102.8230374, 16.4276027 ] } },
{ "type": "Feature", "properties": { "id": 8, "name_t": "ตะวันแดง มหาซน ณ ขอนแก่น", "name_e": "Tawan Daeng Maha Zon Khon Kaen", "latitude": 16.4320802, "longitude": 102.8422981 }, "geometry": { "type": "Point", "coordinates": [ 102.8422981, 16.4320802 ] } },
{ "type": "Feature", "properties": { "id": 9, "name_t": "แก่นแก้ว", "name_e": "KaenKaew", "latitude": 16.4301283, "longitude": 102.8322392 }, "geometry": { "type": "Point", "coordinates": [ 102.8322392, 16.4301283 ] } },
{ "type": "Feature", "properties": { "id": 10, "name_t": "ซิกม่า", "name_e": "Sigma", "latitude": 16.4282957, "longitude": 102.8319232 }, "geometry": { "type": "Point", "coordinates": [ 102.8319232, 16.4282957 ] } },
{ "type": "Feature", "properties": { "id": 11, "name_t": "ไนน์ทีนไนน์ทีไฟว์ โฮมส์", "name_e": "1995 Homes", "latitude": 16.4299426, "longitude": 102.8279274 }, "geometry": { "type": "Point", "coordinates": [ 102.8279274, 16.4299426 ] } },
{ "type": "Feature", "properties": { "id": 12, "name_t": "รัสตี้", "name_e": "RUSTY", "latitude": 16.4307251, "longitude": 102.8318254 }, "geometry": { "type": "Point", "coordinates": [ 102.8318254, 16.4307251 ] } },
{ "type": "Feature", "properties": { "id": 13, "name_t": "พีเพิล บริวเวอรี่", "name_e": "PEOPLE BREWERY", "latitude": 16.4477575, "longitude": 102.8344815 }, "geometry": { "type": "Point", "coordinates": [ 102.8344815, 16.4477575 ] } },
{ "type": "Feature", "properties": { "id": 14, "name_t": "รีอะไลซ์ แกลเลอรี", "name_e": "Realize Gallery", "latitude": 16.4287237, "longitude": 102.8422153 }, "geometry": { "type": "Point", "coordinates": [ 102.8422153, 16.4287237 ] } },
{ "type": "Feature", "properties": { "id": 15, "name_t": "โคว ลูน บาร์", "name_e": "KOW LOON BAR", "latitude": 16.4274562, "longitude": 102.8287019 }, "geometry": { "type": "Point", "coordinates": [ 102.8287019, 16.4274562 ] } },
{ "type": "Feature", "properties": { "id": 16, "name_t": "เดอะ เจนเทิล", "name_e": "The Gentle", "latitude": 16.4298064, "longitude": 102.8279694 }, "geometry": { "type": "Point", "coordinates": [ 102.8279694, 16.4298064 ] } },
{ "type": "Feature", "properties": { "id": 17, "name_t": "ฟอร์เรสต์ บาร์", "name_e": "Forrest Bar", "latitude": 16.4420427, "longitude": 102.8296336 }, "geometry": { "type": "Point", "coordinates": [ 102.8296336, 16.4420427 ] } },
{ "type": "Feature", "properties": { "id": 18, "name_t": "สแนปส์", "name_e": "Snaps", "latitude": 16.4356085, "longitude": 102.8346303 }, "geometry": { "type": "Point", "coordinates": [ 102.8346303, 16.4356085 ] } },
{ "type": "Feature", "properties": { "id": 19, "name_t": "ชิลบาร์ ขอนแก่น", "name_e": "Chill Bar Khon Kaen", "latitude": 16.4526468, "longitude": 102.8491365 }, "geometry": { "type": "Point", "coordinates": [ 102.8491365, 16.4526468 ] } },
{ "type": "Feature", "properties": { "id": 20, "name_t": "แฮชแท็กส์", "name_e": "Hashtags", "latitude": 16.4853761, "longitude": 102.8171981 }, "geometry": { "type": "Point", "coordinates": [ 102.8171981, 16.4853761 ] } },
{ "type": "Feature", "properties": { "id": 21, "name_t": "ดิ อาเธอร์ โฮม เคเคซี", "name_e": "The Other Home KKC", "latitude": 16.4400236, "longitude": 102.8245981 }, "geometry": { "type": "Point", "coordinates": [ 102.8245981, 16.4400236 ] } },
{ "type": "Feature", "properties": { "id": 22, "name_t": "ร้านเพลินเพลิน ขอนแก่น", "name_e": "Ploen Ploen Restaurant Khon Kaen", "latitude": 16.4542409, "longitude": 102.8209337 }, "geometry": { "type": "Point", "coordinates": [ 102.8209337, 16.4542409 ] } },
{ "type": "Feature", "properties": { "id": 23, "name_t": "ขอนแก่น ดีซี", "name_e": "Khonkaen DC", "latitude": 16.4293642, "longitude": 102.8308724 }, "geometry": { "type": "Point", "coordinates": [ 102.8308724, 16.4293642 ] } },
{ "type": "Feature", "properties": { "id": 24, "name_t": "นาร์ บ้าน บาร์", "name_e": "Nar Baan Bar", "latitude": 16.4649576, "longitude": 102.8227163 }, "geometry": { "type": "Point", "coordinates": [ 102.8227163, 16.4649576 ] } },
{ "type": "Feature", "properties": { "id": 25, "name_t": "หลังมอ ขอนแก่น", "name_e": "Lang Mor Khon Kaen", "latitude": 16.485469, "longitude": 102.8168993 }, "geometry": { "type": "Point", "coordinates": [ 102.8168993, 16.485469 ] } },
{ "type": "Feature", "properties": { "id": 26, "name_t": "อีเดน บาร์", "name_e": "Eden Bar", "latitude": 16.4574356, "longitude": 102.8243865 }, "geometry": { "type": "Point", "coordinates": [ 102.8243865, 16.4574356 ] } },
{ "type": "Feature", "properties": { "id": 27, "name_t": "ไปไหนไปกัน", "name_e": "Pai Nai Pai Kan", "latitude": 16.4337524, "longitude": 102.8418456 }, "geometry": { "type": "Point", "coordinates": [ 102.8418456, 16.4337524 ] } },
{ "type": "Feature", "properties": { "id": 28, "name_t": "แทรป เฮาส์", "name_e": "Trap House", "latitude": 16.4378542, "longitude": 102.8261123 }, "geometry": { "type": "Point", "coordinates": [ 102.8261123, 16.4378542 ] } },
{ "type": "Feature", "properties": { "id": 29, "name_t": "ลงเอย", "name_e": "Long Aey", "latitude": 16.4286126, "longitude": 102.8288082 }, "geometry": { "type": "Point", "coordinates": [ 102.8288082, 16.4286126 ] } },
{ "type": "Feature", "properties": { "id": 30, "name_t": "ออนซอน", "name_e": "ONZON", "latitude": 16.4871554, "longitude": 102.8113893 }, "geometry": { "type": "Point", "coordinates": [ 102.8113893, 16.4871554 ] } },
{ "type": "Feature", "properties": { "id": 31, "name_t": "เคโอ บาร์", "name_e": "KO Bar", "latitude": 16.4314318, "longitude": 102.8689172 }, "geometry": { "type": "Point", "coordinates": [ 102.8689172, 16.4314318 ] } },
{ "type": "Feature", "properties": { "id": 32, "name_t": "รู", "name_e": "ROO", "latitude": 16.4275131, "longitude": 102.8309144 }, "geometry": { "type": "Point", "coordinates": [ 102.8309144, 16.4275131 ] } },
{ "type": "Feature", "properties": { "id": 33, "name_t": "ไวน์ ทเวนตี้ทู", "name_e": "Wine 22", "latitude": 16.4260558, "longitude": 102.8277103 }, "geometry": { "type": "Point", "coordinates": [ 102.8277103, 16.4260558 ] } },
{ "type": "Feature", "properties": { "id": 34, "name_t": "บู๊ยยยย บาร์", "name_e": "Buiy Bar", "latitude": 16.4277031, "longitude": 102.831701 }, "geometry": { "type": "Point", "coordinates": [ 102.831701, 16.4277031 ] } },
{ "type": "Feature", "properties": { "id": 35, "name_t": "พีช คลับ", "name_e": "Peach Club", "latitude": 16.4293927, "longitude": 102.8286521 }, "geometry": { "type": "Point", "coordinates": [ 102.8286521, 16.4293927 ] } },
{ "type": "Feature", "properties": { "id": 36, "name_t": "บลูส์ บาร์ คลับ", "name_e": "Blue’s Bar Club", "latitude": 16.4291904, "longitude": 102.8289838 }, "geometry": { "type": "Point", "coordinates": [ 102.8289838, 16.4291904 ] } },
{ "type": "Feature", "properties": { "id": 37, "name_t": "เอนเทอร์ บาร์", "name_e": "Enter Bar", "latitude": 16.4540551, "longitude": 102.8209013 }, "geometry": { "type": "Point", "coordinates": [ 102.8209013, 16.4540551 ] } },
{ "type": "Feature", "properties": { "id": 38, "name_t": "ร้านโบราณบางเวลา", "name_e": "Boran Bang Wela Restaurant", "latitude": 16.4205712, "longitude": 102.8359768 }, "geometry": { "type": "Point", "coordinates": [ 102.8359768, 16.4205712 ] } },
{ "type": "Feature", "properties": { "id": 39, "name_t": "บี ทู ซิท", "name_e": "Be To Sit", "latitude": 16.4849105, "longitude": 102.8174082 }, "geometry": { "type": "Point", "coordinates": [ 102.8174082, 16.4849105 ] } },
{ "type": "Feature", "properties": { "id": 40, "name_t": "ขอนแก่น บาร์", "name_e": "Khonkaen Bar", "latitude": 16.4367929, "longitude": 102.8258222 }, "geometry": { "type": "Point", "coordinates": [ 102.8258222, 16.4367929 ] } },
{ "type": "Feature", "properties": { "id": 41, "name_t": "อัพ บาร์", "name_e": "UP BAR", "latitude": 16.4338368, "longitude": 102.8355011 }, "geometry": { "type": "Point", "coordinates": [ 102.8355011, 16.4338368 ] } },
{ "type": "Feature", "properties": { "id": 42, "name_t": "ไนท์ สกาย บาร์", "name_e": "Night Sky Bar", "latitude": 16.4871993, "longitude": 102.811458 }, "geometry": { "type": "Point", "coordinates": [ 102.811458, 16.4871993 ] } },
{ "type": "Feature", "properties": { "id": 43, "name_t": "แนปส์ บาร์", "name_e": "Nap’s Bar", "latitude": 16.4563431, "longitude": 102.8225476 }, "geometry": { "type": "Point", "coordinates": [ 102.8225476, 16.4563431 ] } },
{ "type": "Feature", "properties": { "id": 44, "name_t": "จินหลง คอมมูนิตี้ เคเคซี", "name_e": "Jinlong Community KKC", "latitude": 16.4325222, "longitude": 102.8299657 }, "geometry": { "type": "Point", "coordinates": [ 102.8299657, 16.4325222 ] } },
{ "type": "Feature", "properties": { "id": 45, "name_t": "นัวเนียบาร์", "name_e": "Nua Nia Bar", "latitude": 16.4574109, "longitude": 102.828307 }, "geometry": { "type": "Point", "coordinates": [ 102.828307, 16.4574109 ] } },
{ "type": "Feature", "properties": { "id": 46, "name_t": "รีเพลย์กราวด์", "name_e": "Replayground", "latitude": 16.4843794, "longitude": 102.8178537 }, "geometry": { "type": "Point", "coordinates": [ 102.8178537, 16.4843794 ] } },
{ "type": "Feature", "properties": { "id": 47, "name_t": "มาคินนี่", "name_e": "Makinnee", "latitude": 16.4325262, "longitude": 102.8409149 }, "geometry": { "type": "Point", "coordinates": [ 102.8409149, 16.4325262 ] } },
{ "type": "Feature", "properties": { "id": 48, "name_t": "เดอะ ไบลนด์ ไทเกอร์ เอ็กซ์ ขอนแก่น", "name_e": "The Blind Tiger X Khonkaen", "latitude": 16.4227284, "longitude": 102.837714 }, "geometry": { "type": "Point", "coordinates": [ 102.837714, 16.4227284 ] } },
{ "type": "Feature", "properties": { "id": 49, "name_t": "แทรป เคเคซี", "name_e": "TRAP KKC", "latitude": 16.432316, "longitude": 102.8425971 }, "geometry": { "type": "Point", "coordinates": [ 102.8425971, 16.432316 ] } },
{ "type": "Feature", "properties": { "id": 50, "name_t": "บับเบิล บาร์", "name_e": "Bubble Bar", "latitude": 16.4275713, "longitude": 102.8291365 }, "geometry": { "type": "Point", "coordinates": [ 102.8291365, 16.4275713 ] } },
{ "type": "Feature", "properties": { "id": 51, "name_t": "เลท อิท เบียร์", "name_e": "Let it Beer", "latitude": 16.4538208, "longitude": 102.8264752 }, "geometry": { "type": "Point", "coordinates": [ 102.8264752, 16.4538208 ] } },
{ "type": "Feature", "properties": { "id": 52, "name_t": "ฟิน คลับ", "name_e": "Fin Club", "latitude": 16.4338752, "longitude": 102.8426104 }, "geometry": { "type": "Point", "coordinates": [ 102.8426104, 16.4338752 ] } },
{ "type": "Feature", "properties": { "id": 53, "name_t": "เดอะ มูน มิวสิก บาร์", "name_e": "The Moon Music Bar", "latitude": 16.4840653, "longitude": 102.8151763 }, "geometry": { "type": "Point", "coordinates": [ 102.8151763, 16.4840653 ] } },
{ "type": "Feature", "properties": { "id": 54, "name_t": "เอ้อระเหย", "name_e": "Oer Rahay", "latitude": 16.4313309, "longitude": 102.8423482 }, "geometry": { "type": "Point", "coordinates": [ 102.8423482, 16.4313309 ] } },
{ "type": "Feature", "properties": { "id": 55, "name_t": "กอทแธม บาร์", "name_e": "GOTHAM BAR", "latitude": 16.4320574, "longitude": 102.8326311 }, "geometry": { "type": "Point", "coordinates": [ 102.8326311, 16.4320574 ] } },
{ "type": "Feature", "properties": { "id": 56, "name_t": "อัพ ทู เดอะ คลาวด์", "name_e": "Up To The Cloud", "latitude": 16.4598631, "longitude": 102.8291589 }, "geometry": { "type": "Point", "coordinates": [ 102.8291589, 16.4598631 ] } },
{ "type": "Feature", "properties": { "id": 57, "name_t": "สราญบาร์ขอนแก่น", "name_e": "Saran Bar Khon Kaen", "latitude": 16.4897138, "longitude": 102.8309747 }, "geometry": { "type": "Point", "coordinates": [ 102.8309747, 16.4897138 ] } },
{ "type": "Feature", "properties": { "id": 58, "name_t": "ชำ-บาร์", "name_e": "Cham-Bar", "latitude": 16.4252529, "longitude": 102.8020063 }, "geometry": { "type": "Point", "coordinates": [ 102.8020063, 16.4252529 ] } },
{ "type": "Feature", "properties": { "id": 59, "name_t": "เดอะ รูท บาร์ ขอนแก่น", "name_e": "The Root Bar Khon Kaen", "latitude": 16.4267757, "longitude": 102.8415977 }, "geometry": { "type": "Point", "coordinates": [ 102.8415977, 16.4267757 ] } },
{ "type": "Feature", "properties": { "id": 60, "name_t": "ไนน์ที คราฟต์ เบียร์ ขอนแก่น", "name_e": "9T Craft Beer Khon Kaen", "latitude": 16.4314599, "longitude": 102.8306571 }, "geometry": { "type": "Point", "coordinates": [ 102.8306571, 16.4314599 ] } },
{ "type": "Feature", "properties": { "id": 61, "name_t": "เดอะ บาร์เรล ขอนแก่น", "name_e": "The Barrel Khon Kaen", "latitude": 16.4313532, "longitude": 102.8306783 }, "geometry": { "type": "Point", "coordinates": [ 102.8306783, 16.4313532 ] } },
{ "type": "Feature", "properties": { "id": 62, "name_t": "ประตูเหล็กบาร์ ขอนแก่น", "name_e": "Pratu Lek Bar Khon Kaen", "latitude": 16.4275429, "longitude": 102.8297617 }, "geometry": { "type": "Point", "coordinates": [ 102.8297617, 16.4275429 ] } },
{ "type": "Feature", "properties": { "id": 63, "name_t": "เฮาส์ บาร์", "name_e": "House Bar", "latitude": 16.4332879, "longitude": 102.8382643 }, "geometry": { "type": "Point", "coordinates": [ 102.8382643, 16.4332879 ] } },
{ "type": "Feature", "properties": { "id": 64, "name_t": "นาว ออร์ เนเวอร์ บาร์", "name_e": "Now or Never Bar", "latitude": 16.4664779, "longitude": 102.8336746 }, "geometry": { "type": "Point", "coordinates": [ 102.8336746, 16.4664779 ] } },
{ "type": "Feature", "properties": { "id": 65, "name_t": "เทบาร์ ขอนแก่น", "name_e": "Tay Bar Khon Kaen", "latitude": 16.4221553, "longitude": 102.8369132 }, "geometry": { "type": "Point", "coordinates": [ 102.8369132, 16.4221553 ] } },
{ "type": "Feature", "properties": { "id": 66, "name_t": "ร้านเพลินเพลิน", "name_e": "Ploen Ploen Restaurant", "latitude": 16.45424472, "longitude": 102.8209286 }, "geometry": { "type": "Point", "coordinates": [ 102.8209286, 16.45424472 ] } },
{ "type": "Feature", "properties": { "id": 67, "name_t": "โอลิมปัส บาร์", "name_e": "OLYMPUS Bar", "latitude": 16.4262218, "longitude": 102.8322944 }, "geometry": { "type": "Point", "coordinates": [ 102.8322944, 16.4262218 ] } },
{ "type": "Feature", "properties": { "id": 68, "name_t": "คริสปี้ เคเคซี", "name_e": "Crispy.kkc", "latitude": 16.4356137, "longitude": 102.8345764 }, "geometry": { "type": "Point", "coordinates": [ 102.8345764, 16.4356137 ] } },
{ "type": "Feature", "properties": { "id": 69, "name_t": "กันเอง แคมป์", "name_e": "Kan-eng Camp", "latitude": 16.4383033, "longitude": 102.7812133 }, "geometry": { "type": "Point", "coordinates": [ 102.7812133, 16.4383033 ] } },
{ "type": "Feature", "properties": { "id": 70, "name_t": "ราฟฟ่าส์ สปอร์ตส์ บาร์", "name_e": "Raffa’s Sports Bar", "latitude": 16.4297089, "longitude": 102.8309372 }, "geometry": { "type": "Point", "coordinates": [ 102.8309372, 16.4297089 ] } },
{ "type": "Feature", "properties": { "id": 71, "name_t": "อัลตร้า คลับ", "name_e": "Ultra Club", "latitude": 16.42822428, "longitude": 102.8288693 }, "geometry": { "type": "Point", "coordinates": [ 102.8288693, 16.42822428 ] } },
{ "type": "Feature", "properties": { "id": 72, "name_t": "โซลด์ เอาท์", "name_e": "SOLD OUT", "latitude": 16.4874794, "longitude": 102.8115891 }, "geometry": { "type": "Point", "coordinates": [ 102.8115891, 16.4874794 ] } }
]
}
