{
"type": "FeatureCollection",
"name": "hospital",
"crs": { "type": "name", "properties": { "name": "urn:ogc:def:crs:OGC:1.3:CRS84" } },
"features": [
{ "type": "Feature", "properties": { "name_t": "โรงพยาบาลขอนแก่น", "name_e": "Khon Kaen Hospital", "latitude": 16.4291172, "longitude": 102.8491256, "phone": "0-4300-9900", "hos_type": "Public" }, "geometry": { "type": "Point", "coordinates": [ 102.8491256, 16.4291172 ] } },
{ "type": "Feature", "properties": { "name_t": "โรงพยาบาลขอนแก่นราม", "name_e": "Khon Kaen Ram Hospital", "latitude": 16.4329904, "longitude": 102.8213285, "phone": "0-4300-2002", "hos_type": "Private" }, "geometry": { "type": "Point", "coordinates": [ 102.8213285, 16.4329904 ] } },
{ "type": "Feature", "properties": { "name_t": "โรงพยาบาลศรีนครินทร์", "name_e": "Srinagarind Hospital", "latitude": 16.4680574, "longitude": 102.8300541, "phone": "0-4320-2000", "hos_type": "Public" }, "geometry": { "type": "Point", "coordinates": [ 102.8300541, 16.4680574 ] } },
{ "type": "Feature", "properties": { "name_t": "โรงพยาบาลกรุงเทพขอนแก่น", "name_e": "Bangkok Hospital Khon Kaen", "latitude": 16.4422085, "longitude": 102.8203288, "phone": "0-4304-2888", "hos_type": "Private" }, "geometry": { "type": "Point", "coordinates": [ 102.8203288, 16.4422085 ] } },
{ "type": "Feature", "properties": { "name_t": "โรงพยาบาลราชพฤกษ์", "name_e": "Ratchaphruek Hospital", "latitude": 16.4485555, "longitude": 102.8303097, "phone": "0-4333-3555", "hos_type": "Private" }, "geometry": { "type": "Point", "coordinates": [ 102.8303097, 16.4485555 ] } }
]
}
