{
"type": "FeatureCollection",
"name": "kku_university",
"crs": { "type": "name", "properties": { "name": "urn:ogc:def:crs:OGC:1.3:CRS84" } },
"features": [
{ "type": "Feature", "properties": { "adress": "123 หมู่ที่ 16, Thanon Mittraphap, Nai Mueang, Mueang Khon Kaen District, Khon Kaen 40002, Thailand", "phone": "043009700", "Fac_nm_e": "Khon Kaen University", "Fac_nm_t": "มหาวิทยาลัยขอนแก่น", "latitude": 16.47049315, "longitude": 102.8150887, "fac_code": "khonkaenuniversity" }, "geometry": { "type": "Point", "coordinates": [ 102.815139188424254, 16.470851939583181 ] } },
{ "type": "Feature", "properties": { "adress": "123 ถนน มิตรภาพ, ในเมือง อ Mueang Khon Kaen District, Khon Kaen 40002, Thailand", "phone": "043202861", "Fac_nm_e": "Faculty of Humanities and Social Sciences, Khon Kaen University", "Fac_nm_t": "คณะมนุษยศาสตร์และสังคมศาสตร์", "latitude": 16.4748949, "longitude": 102.8256541, "fac_code": "humanities" }, "geometry": { "type": "Point", "coordinates": [ 102.8256541, 16.4748949 ] } },
{ "type": "Feature", "properties": { "adress": "123 มหาวิทยาลัยขอนแก่น, Thanon Mittraphap, Mueang Khon Kaen District, Khon Kaen 40002, Thailand", "phone": "043306376", "Fac_nm_e": "Faculty of Architecture, Khon Kaen University", "Fac_nm_t": "คณะสถาปัตยกรรมศาสตร์", "latitude": 16.4721483, "longitude": 102.8274412, "fac_code": "architecture" }, "geometry": { "type": "Point", "coordinates": [ 102.8274412, 16.4721483 ] } },
{ "type": "Feature", "properties": { "adress": "เลขที่ 123 ตำบลในเมือง ,อำเภอเมืองขอนแก่น ขอนแก่น ประเทศไทย, ในเมือง Mueang Khon Kaen District, Khon Kaen 40002, Thailand", "phone": "043202267", "Fac_nm_e": "Faculty of Economics, Khon Kaen University", "Fac_nm_t": "คณะเศรษฐศาสตร์", "latitude": 16.4741871, "longitude": 102.8295925, "fac_code": "economics" }, "geometry": { "type": "Point", "coordinates": [ 102.8295925, 16.4741871 ] } },
{ "type": "Feature", "properties": { "adress": "123 หมู่ 16 ถนนมิตรภาพ, Nai Mueang, Mueang Khon Kaen District, Khon Kaen 40002, Thailand", "phone": "043203588", "Fac_nm_e": "Faculty of Law, Khon Kaen University", "Fac_nm_t": "คณะนิติศาสตร์", "latitude": 16.4500304, "longitude": 102.8152909, "fac_code": "law" }, "geometry": { "type": "Point", "coordinates": [ 102.8152909, 16.4500304 ] } },
{ "type": "Feature", "properties": { "adress": "123 ถนน มิตรภาพ, Tambon Nai Mueang, Mueang Khon Kaen District, Khon Kaen 40002, Thailand", "phone": "043202396", "Fac_nm_e": "Faculty of Fine and Applied Arts, Khon Kaen University", "Fac_nm_t": "คณะศิลปกรรมศาสตร์", "latitude": 16.4692332, "longitude": 102.8176295, "fac_code": "finearts" }, "geometry": { "type": "Point", "coordinates": [ 102.8176295, 16.4692332 ] } },
{ "type": "Feature", "properties": { "adress": "หมู่ที่ 16, 123, Thanon Mittraphap, Mueang Khon Kaen District, Khon Kaen 40002, Thailand", "phone": "043348888", "Fac_nm_e": "Faculty of Medicine, Khon Kaen University", "Fac_nm_t": "คณะแพทยศาสตร์", "latitude": 16.4695501, "longitude": 102.8311281, "fac_code": "medicine" }, "geometry": { "type": "Point", "coordinates": [ 102.8311281, 16.4695501 ] } },
{ "type": "Feature", "properties": { "adress": "123 หมู่ที่ 16, Thanon Mittraphap, Nai Mueang, Mueang Khon Kaen District, Khon Kaen 40002, Thailand", "phone": "043343452", "Fac_nm_e": "Faculty of Education, Khon Kaen University", "Fac_nm_t": "คณะศึกษาศาสตร์", "latitude": 16.4731378, "longitude": 102.8266962, "fac_code": "education" }, "geometry": { "type": "Point", "coordinates": [ 102.8266962, 16.4731378 ] } },
{ "type": "Feature", "properties": { "adress": "123 ถนน มิตรภาพ, Tambon Nai Mueang, Mueang Khon Kaen District, Khon Kaen 40002, Thailand", "phone": "043347057", "Fac_nm_e": "Faculty of Public Health, Khon Kaen University", "Fac_nm_t": "คณะสาธารณสุขศาสตร์", "latitude": 16.4702191, "longitude": 102.8258533, "fac_code": "publichealth" }, "geometry": { "type": "Point", "coordinates": [ 102.8258533, 16.4702191 ] } },
{ "type": "Feature", "properties": { "adress": "123 ถนน มิตรภาพ, Nai Mueang, อ. เมือง, Khon Kaen 40002, Thailand", "phone": "043202401", "Fac_nm_e": "Faculty of Business Administration and Accountancy, Khon Kaen University", "Fac_nm_t": "คณะบริหารธุรกิจและการบัญชี", "latitude": 16.4737532, "longitude": 102.8255719, "fac_code": "business" }, "geometry": { "type": "Point", "coordinates": [ 102.8255719, 16.4737532 ] } },
{ "type": "Feature", "properties": { "adress": "123 ถนน มิตรภาพ, Tambon Sila, Mueang Khon Kaen District, Khon Kaen 40000, Thailand", "phone": "043202361", "Fac_nm_e": "Faculty of Agriculture, Khon Kaen University", "Fac_nm_t": "คณะเกษตรศาสตร์", "latitude": 16.4767097, "longitude": 102.8219102, "fac_code": "agriculture" }, "geometry": { "type": "Point", "coordinates": [ 102.8219102, 16.4767097 ] } },
{ "type": "Feature", "properties": { "adress": "หมู่ที่ 16, 123/2002, Thanon Mittraphap, Mueang Khon Kaen District, Khon Kaen 40002, Thailand", "phone": "043362121", "Fac_nm_e": "Faculty of Technology, Khon Kaen University", "Fac_nm_t": "คณะเทคโนโลยี", "latitude": 16.4744428, "longitude": 102.8221313, "fac_code": "technology" }, "geometry": { "type": "Point", "coordinates": [ 102.8221313, 16.4744428 ] } },
{ "type": "Feature", "properties": { "adress": "123 หมู่ 16 Thanon Mittraphap, Nai Mueang, Mueang Khon Kaen District, Khon Kaen 40002, Thailand", "phone": "043202378", "Fac_nm_e": "Faculty of Pharmaceutical Sciences, Khon Kaen University", "Fac_nm_t": "คณะเภสัชศาสตร์", "latitude": 16.4706108, "longitude": 102.827696, "fac_code": "pharmacy" }, "geometry": { "type": "Point", "coordinates": [ 102.827696, 16.4706108 ] } },
{ "type": "Feature", "properties": { "adress": "123 หมู่ 16 ถนนมะลิวัลย์, Tambon Nai Mueang, Mueang Khon Kaen District, Khon Kaen 40002, Thailand", "phone": "043202407", "Fac_nm_e": "Faculty of Nursing, Khon Kaen University", "Fac_nm_t": "คณะพยาบาลศาสตร์", "latitude": 16.4696984, "longitude": 102.8251109, "fac_code": "nursing" }, "geometry": { "type": "Point", "coordinates": [ 102.8251109, 16.4696984 ] } },
{ "type": "Feature", "properties": { "adress": "123 ถ. มิตรภาพ, Tambon Sila, Mueang Khon Kaen District, Khon Kaen 40002, Thailand", "phone": "043362145", "Fac_nm_e": "Faculty of Engineering, Khon Kaen University", "Fac_nm_t": "คณะวิศวกรรมศาสตร์", "latitude": 16.4731392, "longitude": 102.8233183, "fac_code": "engineering" }, "geometry": { "type": "Point", "coordinates": [ 102.8233183, 16.4731392 ] } },
{ "type": "Feature", "properties": { "adress": "123 Thanon Mittraphap, Nai Mueang, Mueang Khon Kaen District, Khon Kaen 40002, Thailand", "phone": "043203124", "Fac_nm_e": "College of Local Administration, Khon Kaen University", "Fac_nm_t": "วิทยาลัยการปกครองท้องถิ่น", "latitude": 16.4735313, "longitude": 102.8312175, "fac_code": "localadmin" }, "geometry": { "type": "Point", "coordinates": [ 102.8312175, 16.4735313 ] } },
{ "type": "Feature", "properties": { "adress": "123 Thanon Mittraphap, Nai Mueang, Mueang Khon Kaen District, Khon Kaen 40002, Thailand", "phone": "043202424", "Fac_nm_e": "Khon Kaen University International College", "Fac_nm_t": "วิทยาลัยนานาชาติ", "latitude": 16.4743826, "longitude": 102.8290556, "fac_code": "international" }, "geometry": { "type": "Point", "coordinates": [ 102.8290556, 16.4743826 ] } },
{ "type": "Feature", "properties": { "adress": "123 Thanon Mittraphap, Nai Mueang, Mueang Khon Kaen District, Khon Kaen 40000, Thailand", "phone": "043202404", "Fac_nm_e": "Faculty of Veterinary Medicine, Khon Kaen University", "Fac_nm_t": "คณะสัตวแพทยศาสตร์", "latitude": 16.4784163, "longitude": 102.8313201, "fac_code": "veterinary" }, "geometry": { "type": "Point", "coordinates": [ 102.8313201, 16.4784163 ] } },
{ "type": "Feature", "properties": { "adress": "123 อาคารวิทยวิภาส หมู่ 16 ถนนมิตรภาพ ตำบลในเมือง อำเภอเมืองขอนแก่น จังหวัดขอนแก่น 40002", "phone": "043009700", "Fac_nm_e": "College of Computing, Khon Kaen University", "Fac_nm_t": "วิทยาลัยการคอมพิวเตอร์", "latitude": 16.47543058, "longitude": 102.8250237, "fac_code": "computing" }, "geometry": { "type": "Point", "coordinates": [ 102.825022784800552, 16.475431031566643 ] } },
{ "type": "Feature", "properties": { "adress": "123 หมู่ 16 ถนนมิตรภาพ ตำบลในเมือง อำเภอเมือง จังหวัดขอนแก่น 40002", "phone": "043009700", "Fac_nm_e": "Faculty of Science", "Fac_nm_t": "คณะวิทยาศาสตร์", "latitude": 16.47654206, "longitude": 102.8242562, "fac_code": "science" }, "geometry": null },
{ "type": "Feature", "properties": { "adress": "Faculty of Associated Medical Sciences, Khon Kaen University", "phone": "043009700", "Fac_nm_e": "Associated Medical Sciences", "Fac_nm_t": "คณะเทคนิคการเเพทย์", "latitude": 16.46921, "longitude": 102.82775, "fac_code": "medicalsciences" }, "geometry": { "type": "Point", "coordinates": [ 102.82764494621216, 16.468797280730087 ] } },
{ "type": "Feature", "properties": { "adress": "Faculty of Dentistry, Khon Kaen University", "phone": "043009700", "Fac_nm_e": "Faculty of Dentistry, Khon Kaen University", "Fac_nm_t": "คณะทันตแพทยศาสตร์", "latitude": 16.4688, "longitude": 102.82872, "fac_code": "dentistry" }, "geometry": { "type": "Point", "coordinates": [ 102.82827795775988, 16.466561606358209 ] } }
]
}
