{
"type": "FeatureCollection",
"name": "restaurant",
"crs": { "type": "name", "properties": { "name": "urn:ogc:def:crs:OGC:1.3:CRS84" } },
"features": [
{ "type": "Feature", "properties": { "name_t": "ฮารุ ฮานะ เจแปนนีส คาเฟ่", "name_e": "Haru Hana Japanese Cafe", "latitude": 16.4601641, "longitude": 102.8303634, "rating": 4.8 }, "geometry": { "type": "Point", "coordinates": [ 102.8303634, 16.4601641 ] } },
{ "type": "Feature", "properties": { "name_t": "แก่น", "name_e": "Kaen", "latitude": 16.4638854, "longitude": 102.8257428, "rating": 4.8 }, "geometry": { "type": "Point", "coordinates": [ 102.8257428, 16.4638854 ] } },
{ "type": "Feature", "properties": { "name_t": "เดอะ โกลบ", "name_e": "The Globe", "latitude": 16.4374218, "longitude": 102.846532, "rating": 4.9 }, "geometry": { "type": "Point", "coordinates": [ 102.846532, 16.4374218 ] } },
{ "type": "Feature", "properties": { "name_t": "บ้านเฮง", "name_e": "Baan Heng", "latitude": 16.4341361, "longitude": 102.8358199, "rating": 4.5 }, "geometry": { "type": "Point", "coordinates": [ 102.8358199, 16.4341361 ] } },
{ "type": "Feature", "properties": { "name_t": "กาบั๋ญ ร้านอาหารเช้าขอนแก่น", "name_e": "Ka Banh Breakfast Restaurant Khon Kaen", "latitude": 16.4262071, "longitude": 102.849425, "rating": 4.8 }, "geometry": { "type": "Point", "coordinates": [ 102.849425, 16.4262071 ] } },
{ "type": "Feature", "properties": { "name_t": "ไวท์ บันส์ คาเฟ่ แอนด์ บิสโทร", "name_e": "White Buns Cafe & Bistro", "latitude": 16.439487, "longitude": 102.8261379, "rating": 4.8 }, "geometry": { "type": "Point", "coordinates": [ 102.8261379, 16.439487 ] } },
{ "type": "Feature", "properties": { "name_t": "ร้านกังหันน้ำ", "name_e": "Kanghan Nam Restaurant", "latitude": 16.4375052, "longitude": 102.7944495, "rating": 4.7 }, "geometry": { "type": "Point", "coordinates": [ 102.7944495, 16.4375052 ] } },
{ "type": "Feature", "properties": { "name_t": "หมีส้ม ทัม", "name_e": "Mee Som TUM", "latitude": 16.4272471, "longitude": 102.8372582, "rating": 4.9 }, "geometry": { "type": "Point", "coordinates": [ 102.8372582, 16.4272471 ] } },
{ "type": "Feature", "properties": { "name_t": "เอ็น ขอนแก่น", "name_e": "En Khon Kaen", "latitude": 16.4527009, "longitude": 102.8239623, "rating": 4.9 }, "geometry": { "type": "Point", "coordinates": [ 102.8239623, 16.4527009 ] } },
{ "type": "Feature", "properties": { "name_t": "ฮาลองเบย์ อาหารเวียดนาม ขอนแก่น", "name_e": "Halong Bay Vietnamese Food Khon Kaen", "latitude": 16.4232748, "longitude": 102.8404648, "rating": 4.6 }, "geometry": { "type": "Point", "coordinates": [ 102.8404648, 16.4232748 ] } },
{ "type": "Feature", "properties": { "name_t": "นั่นมัน ข้าวมันไก่สิงคโปร์", "name_e": "Nan Man Singapore Chicken Rice", "latitude": 16.4605269, "longitude": 102.8454593, "rating": 4.9 }, "geometry": { "type": "Point", "coordinates": [ 102.8454593, 16.4605269 ] } },
{ "type": "Feature", "properties": { "name_t": "ร้านอัล เดนเต้ ขอนแก่น", "name_e": "Al Dente Restaurant Khon Kaen", "latitude": 16.4228191, "longitude": 102.8429718, "rating": 4.7 }, "geometry": { "type": "Point", "coordinates": [ 102.8429718, 16.4228191 ] } },
{ "type": "Feature", "properties": { "name_t": "บ้านป้าหลายอาหารเช้า", "name_e": "Baan Pa Lai Breakfast", "latitude": 16.4610143, "longitude": 102.8333398, "rating": 4.5 }, "geometry": { "type": "Point", "coordinates": [ 102.8333398, 16.4610143 ] } },
{ "type": "Feature", "properties": { "name_t": "เดอะ วอลล์ ขอนแก่น แฟมิลี่ สเปซ", "name_e": "The Wall Khon Kaen Family Space", "latitude": 16.4254578, "longitude": 102.8320473, "rating": 4.7 }, "geometry": { "type": "Point", "coordinates": [ 102.8320473, 16.4254578 ] } },
{ "type": "Feature", "properties": { "name_t": "สมายล์ ริมบึงหนองโคตร", "name_e": "Smile Waterside", "latitude": 16.4276861, "longitude": 102.798379, "rating": 4.3 }, "geometry": { "type": "Point", "coordinates": [ 102.798379, 16.4276861 ] } },
{ "type": "Feature", "properties": { "name_t": "เส้นสาย", "name_e": "Sen Sai", "latitude": 16.4334846, "longitude": 102.8341586, "rating": 4.9 }, "geometry": { "type": "Point", "coordinates": [ 102.8341586, 16.4334846 ] } },
{ "type": "Feature", "properties": { "name_t": "ข้าวต้มพุงพลุ้ย ขอนแก่น", "name_e": "Khao Tom Phung Plui Khon Kaen", "latitude": 16.4356172, "longitude": 102.8110736, "rating": 4.8 }, "geometry": { "type": "Point", "coordinates": [ 102.8110736, 16.4356172 ] } },
{ "type": "Feature", "properties": { "name_t": "ลอมข้าว", "name_e": "Lom Khao", "latitude": 16.4490956, "longitude": 102.8386176, "rating": 4.5 }, "geometry": { "type": "Point", "coordinates": [ 102.8386176, 16.4490956 ] } },
{ "type": "Feature", "properties": { "name_t": "โต้งปลาเผา", "name_e": "Tong Grilled Fish", "latitude": 16.4222421, "longitude": 102.8371835, "rating": 4.3 }, "geometry": { "type": "Point", "coordinates": [ 102.8371835, 16.4222421 ] } },
{ "type": "Feature", "properties": { "name_t": "สีนานวล คาเฟ่ กังสดาล", "name_e": "Si Na Nuan Cafe Kangsadan", "latitude": 16.4583415, "longitude": 102.8233136, "rating": 4.4 }, "geometry": { "type": "Point", "coordinates": [ 102.8233136, 16.4583415 ] } },
{ "type": "Feature", "properties": { "name_t": "ญวนเร อาหารเช้าเวียดนาม ขอนแก่น", "name_e": "Yuan Re Vietnamese Breakfast Khon Kaen", "latitude": 16.4238304, "longitude": 102.8373632, "rating": 4.5 }, "geometry": { "type": "Point", "coordinates": [ 102.8373632, 16.4238304 ] } },
{ "type": "Feature", "properties": { "name_t": "จู้ ฟาง", "name_e": "Chu Fang", "latitude": 16.4373182, "longitude": 102.8459864, "rating": 4.9 }, "geometry": { "type": "Point", "coordinates": [ 102.8459864, 16.4373182 ] } },
{ "type": "Feature", "properties": { "name_t": "ตำกระเทย สาเกต สนามบินขอนแก่น", "name_e": "Tam Krathoey Saket Khon Kaen Airport", "latitude": 16.4517624, "longitude": 102.7846142, "rating": 4.5 }, "geometry": { "type": "Point", "coordinates": [ 102.7846142, 16.4517624 ] } },
{ "type": "Feature", "properties": { "name_t": "เมซง ทสึรุ", "name_e": "Maison Tsuru", "latitude": 16.4449084, "longitude": 102.8304426, "rating": 5.0 }, "geometry": { "type": "Point", "coordinates": [ 102.8304426, 16.4449084 ] } },
{ "type": "Feature", "properties": { "name_t": "สุกิชิ", "name_e": "Sukishi Central Khon Kaen", "latitude": 16.4330818, "longitude": 102.8263585, "rating": 4.8 }, "geometry": { "type": "Point", "coordinates": [ 102.8263585, 16.4330818 ] } },
{ "type": "Feature", "properties": { "name_t": "ร้านฌาณไม้", "name_e": "Chan Mai Restaurant", "latitude": 16.4603326, "longitude": 102.8296487, "rating": 4.6 }, "geometry": { "type": "Point", "coordinates": [ 102.8296487, 16.4603326 ] } },
{ "type": "Feature", "properties": { "name_t": "มาร์ อาหารเช้า ก๋วยเตี๋ยวหมูต้มยำน้ำใส ขอนแก่น", "name_e": "Mar Breakfast, Clear Tom Yum Pork Noodles Khon Kaen", "latitude": 16.4263484, "longitude": 102.8313206, "rating": 4.5 }, "geometry": { "type": "Point", "coordinates": [ 102.8313206, 16.4263484 ] } },
{ "type": "Feature", "properties": { "name_t": "ร้านประสิทธิ์โภชนา", "name_e": "Prasit Phochana Restaurant", "latitude": 16.4342528, "longitude": 102.8333794, "rating": 4.3 }, "geometry": { "type": "Point", "coordinates": [ 102.8333794, 16.4342528 ] } },
{ "type": "Feature", "properties": { "name_t": "ร้านหน้าไม้", "name_e": "Na Mai Restaurant", "latitude": 16.4342047, "longitude": 102.8325169, "rating": 4.5 }, "geometry": { "type": "Point", "coordinates": [ 102.8325169, 16.4342047 ] } },
{ "type": "Feature", "properties": { "name_t": "ร้านประชาสโมสร", "name_e": "Pracha Samosorn Restaurant", "latitude": 16.4267795, "longitude": 102.8417452, "rating": 4.4 }, "geometry": { "type": "Point", "coordinates": [ 102.8417452, 16.4267795 ] } },
{ "type": "Feature", "properties": { "name_t": "ครัว โอมเพี้ยง", "name_e": "Om Phiang Kitchen", "latitude": 16.4373914, "longitude": 102.848724, "rating": 4.3 }, "geometry": { "type": "Point", "coordinates": [ 102.848724, 16.4373914 ] } },
{ "type": "Feature", "properties": { "name_t": "มากินนี่", "name_e": "Makinnee", "latitude": 16.4325262, "longitude": 102.8409149, "rating": 4.5 }, "geometry": { "type": "Point", "coordinates": [ 102.8409149, 16.4325262 ] } },
{ "type": "Feature", "properties": { "name_t": "ครัวสุพรรณิการ์ โดย คุณยายสมศรี", "name_e": "Suphannikar Kitchen by Grandma Somsri", "latitude": 16.4119284, "longitude": 102.8592509, "rating": 4.4 }, "geometry": { "type": "Point", "coordinates": [ 102.8592509, 16.4119284 ] } },
{ "type": "Feature", "properties": { "name_t": "เต๊ดขอนแก่น ร้านอาหารเช้าขอนแก่น", "name_e": "Tet Khon Kaen Breakfast Restaurant", "latitude": 16.4371858, "longitude": 102.8364274, "rating": 4.7 }, "geometry": { "type": "Point", "coordinates": [ 102.8364274, 16.4371858 ] } },
{ "type": "Feature", "properties": { "name_t": "5 ดาว ร้านอาหาร", "name_e": "5 Star Restaurant", "latitude": 16.4314763, "longitude": 102.8285816, "rating": 4.5 }, "geometry": { "type": "Point", "coordinates": [ 102.8285816, 16.4314763 ] } },
{ "type": "Feature", "properties": { "name_t": "ดราก้อน ซูชิ ขอนแก่น", "name_e": "Dragon Sushi Khon Kaen", "latitude": 16.4281307, "longitude": 102.8408369, "rating": 4.7 }, "geometry": { "type": "Point", "coordinates": [ 102.8408369, 16.4281307 ] } },
{ "type": "Feature", "properties": { "name_t": "ตี๋น้อย บาร์บีคิว ขอนแก่น", "name_e": "Teenoi BBQ Khon Kaen", "latitude": 16.4281116, "longitude": 102.8282852, "rating": 4.7 }, "geometry": { "type": "Point", "coordinates": [ 102.8282852, 16.4281116 ] } },
{ "type": "Feature", "properties": { "name_t": "ขอนแก่น บุทเชอร์", "name_e": "Khon Kaen Butcher", "latitude": 16.494555, "longitude": 102.8433143, "rating": 4.8 }, "geometry": { "type": "Point", "coordinates": [ 102.8433143, 16.494555 ] } },
{ "type": "Feature", "properties": { "name_t": "มานะโภชนา", "name_e": "Mana Phochana", "latitude": 16.4383526, "longitude": 102.781703, "rating": 4.3 }, "geometry": { "type": "Point", "coordinates": [ 102.781703, 16.4383526 ] } },
{ "type": "Feature", "properties": { "name_t": "บ้านหอมรัญจวน", "name_e": "Baan Hom Ranchuan", "latitude": 16.4208491, "longitude": 102.8476953, "rating": 4.6 }, "geometry": { "type": "Point", "coordinates": [ 102.8476953, 16.4208491 ] } },
{ "type": "Feature", "properties": { "name_t": "คาเฟ่เดอปารีส ขอนแก่น", "name_e": "Cafe de Paris Khon Kaen", "latitude": 16.4119911, "longitude": 102.8127056, "rating": 4.5 }, "geometry": { "type": "Point", "coordinates": [ 102.8127056, 16.4119911 ] } },
{ "type": "Feature", "properties": { "name_t": "ร้านอาหาร จัสต์ มี", "name_e": "Just Me Restaurant", "latitude": 16.4487644, "longitude": 102.8411821, "rating": 4.3 }, "geometry": { "type": "Point", "coordinates": [ 102.8411821, 16.4487644 ] } },
{ "type": "Feature", "properties": { "name_t": "แจ่ม คาเฟ่ แอนด์ อีทเทอรี่", "name_e": "Jaem Cafe & Eatery", "latitude": 16.4530231, "longitude": 102.7848384, "rating": 4.4 }, "geometry": { "type": "Point", "coordinates": [ 102.7848384, 16.4530231 ] } },
{ "type": "Feature", "properties": { "name_t": "เฮือนคำนาง ขอนแก่น", "name_e": "Huean Kham Nang Khon Kaen", "latitude": 16.4888948, "longitude": 102.8223572, "rating": 4.7 }, "geometry": { "type": "Point", "coordinates": [ 102.8223572, 16.4888948 ] } },
{ "type": "Feature", "properties": { "name_t": "ร้านซุปเปอร์หมู อาหารเช้า", "name_e": "Super Moo Breakfast", "latitude": 16.4277393, "longitude": 102.8379288, "rating": 4.2 }, "geometry": { "type": "Point", "coordinates": [ 102.8379288, 16.4277393 ] } },
{ "type": "Feature", "properties": { "name_t": "ซีซั่นส์ 27 แอท แอด ลิบ ขอนแก่น", "name_e": "Seasons 27 at Ad Lib Khon Kaen", "latitude": 16.4299946, "longitude": 102.832188, "rating": 4.8 }, "geometry": { "type": "Point", "coordinates": [ 102.832188, 16.4299946 ] } },
{ "type": "Feature", "properties": { "name_t": "ร้านอาหารลุงเหลิม", "name_e": "Lung Loem Restaurant", "latitude": 16.445361, "longitude": 102.8034849, "rating": 4.1 }, "geometry": { "type": "Point", "coordinates": [ 102.8034849, 16.445361 ] } },
{ "type": "Feature", "properties": { "name_t": "กู๊ด กู๊ด แหนมเนือง สาขามหาวิทยาลัยขอนแก่น", "name_e": "Good Good Nam Nueang, Khon Kaen University Branch", "latitude": 16.4800353, "longitude": 102.8047573, "rating": 4.8 }, "geometry": { "type": "Point", "coordinates": [ 102.8047573, 16.4800353 ] } },
{ "type": "Feature", "properties": { "name_t": "ภัตตาคารเล่าลี่", "name_e": "Lao Li Restaurant", "latitude": 16.4289824, "longitude": 102.842431, "rating": 4.3 }, "geometry": { "type": "Point", "coordinates": [ 102.842431, 16.4289824 ] } },
{ "type": "Feature", "properties": { "name_t": "ร้านอาหารเติมรมย์", "name_e": "Toem Rom Restaurant", "latitude": 16.4275388, "longitude": 102.8378262, "rating": 4.4 }, "geometry": { "type": "Point", "coordinates": [ 102.8378262, 16.4275388 ] } },
{ "type": "Feature", "properties": { "name_t": "เล้งเย็นตาโฟ", "name_e": "Leng Yen Ta Fo", "latitude": 16.4349216, "longitude": 102.8359925, "rating": 4.2 }, "geometry": { "type": "Point", "coordinates": [ 102.8359925, 16.4349216 ] } },
{ "type": "Feature", "properties": { "name_t": "บ้านคีตศิลป์ขอนแก่น", "name_e": "Baan Khit Sin Khon Kaen", "latitude": 16.4070248, "longitude": 102.8159541, "rating": 4.4 }, "geometry": { "type": "Point", "coordinates": [ 102.8159541, 16.4070248 ] } },
{ "type": "Feature", "properties": { "name_t": "ข้าวต้ม ก๊ก 24 น.", "name_e": "Khao Tom Kok 24 Hrs", "latitude": 16.430723, "longitude": 102.830357, "rating": 3.9 }, "geometry": { "type": "Point", "coordinates": [ 102.830357, 16.430723 ] } },
{ "type": "Feature", "properties": { "name_t": "โต๊ะอาหาร บิสโตร สาขาขอนแก่น", "name_e": "TOH R HAAN Bistro Khon Kaen Branch", "latitude": 16.4111755, "longitude": 102.8348881, "rating": 4.8 }, "geometry": { "type": "Point", "coordinates": [ 102.8348881, 16.4111755 ] } },
{ "type": "Feature", "properties": { "name_t": "โอชิเน ขอนแก่น", "name_e": "Oshine Khon Kaen", "latitude": 16.4555397, "longitude": 102.8230313, "rating": 4.3 }, "geometry": { "type": "Point", "coordinates": [ 102.8230313, 16.4555397 ] } },
{ "type": "Feature", "properties": { "name_t": "โซล สเตจ ขอนแก่น", "name_e": "Seoul Stage Khon Kaen", "latitude": 16.4564245, "longitude": 102.8230541, "rating": 4.5 }, "geometry": { "type": "Point", "coordinates": [ 102.8230541, 16.4564245 ] } },
{ "type": "Feature", "properties": { "name_t": "กรีนลีฟ ไฮโดรฟาร์ม แอนด์ เรสเตอรองต์", "name_e": "Greenleaf Hydrofarm & Restaurant", "latitude": 16.455786, "longitude": 102.78461, "rating": 4.4 }, "geometry": { "type": "Point", "coordinates": [ 102.78461, 16.455786 ] } },
{ "type": "Feature", "properties": { "name_t": "เซน เจแปนนีส เรสเตอรองต์ สาขาขอนแก่น", "name_e": "Zen Japanese Restaurant Khon Kaen Branch", "latitude": 16.4329491, "longitude": 102.825884, "rating": 4.7 }, "geometry": { "type": "Point", "coordinates": [ 102.825884, 16.4329491 ] } },
{ "type": "Feature", "properties": { "name_t": "วัง โคเรียน บาร์บีคิว ขอนแก่น", "name_e": "WANG Korean BBQ Khon Kaen", "latitude": 16.4317001, "longitude": 102.8309041, "rating": 4.5 }, "geometry": { "type": "Point", "coordinates": [ 102.8309041, 16.4317001 ] } },
{ "type": "Feature", "properties": { "name_t": "ซิโพลเล่ บาย เชฟ แดน", "name_e": "Sipolle By Chef Dan", "latitude": 16.4332992, "longitude": 102.834347, "rating": 4.4 }, "geometry": { "type": "Point", "coordinates": [ 102.834347, 16.4332992 ] } },
{ "type": "Feature", "properties": { "name_t": "ร้านไก่รสทิพย์", "name_e": "Kai Rot Thip Restaurant", "latitude": 16.4600443, "longitude": 102.8275972, "rating": 4.2 }, "geometry": { "type": "Point", "coordinates": [ 102.8275972, 16.4600443 ] } },
{ "type": "Feature", "properties": { "name_t": "ร้านอาหารแชร์", "name_e": "Share Restaurant", "latitude": 16.435321, "longitude": 102.7917686, "rating": 4.5 }, "geometry": { "type": "Point", "coordinates": [ 102.7917686, 16.435321 ] } },
{ "type": "Feature", "properties": { "name_t": "คุณแจงก๋วยเตี๋ยวปากหม้อเข้าวัง", "name_e": "Khun Jaeng Kuaitiao Pak Mo Khao Wang", "latitude": 16.4248246, "longitude": 102.8365152, "rating": 4.4 }, "geometry": { "type": "Point", "coordinates": [ 102.8365152, 16.4248246 ] } },
{ "type": "Feature", "properties": { "name_t": "แซ่บสะเดิด", "name_e": "Saeb Sa Doet", "latitude": 16.4362119, "longitude": 102.8360819, "rating": 4.5 }, "geometry": { "type": "Point", "coordinates": [ 102.8360819, 16.4362119 ] } },
{ "type": "Feature", "properties": { "name_t": "ควินส์ ร้านอาหารอินเดียขอนแก่น", "name_e": "QUINN'S One & Only Indian Restaurant", "latitude": 16.4938968, "longitude": 102.832906, "rating": 4.6 }, "geometry": { "type": "Point", "coordinates": [ 102.832906, 16.4938968 ] } },
{ "type": "Feature", "properties": { "name_t": "ปิเอโตร การ์เด้น", "name_e": "Pietro Garden", "latitude": 16.4639472, "longitude": 102.8290863, "rating": 4.5 }, "geometry": { "type": "Point", "coordinates": [ 102.8290863, 16.4639472 ] } },
{ "type": "Feature", "properties": { "name_t": "โจ๊ก ก๋วยจั๊บ ต้มเส้น บัตรคิว", "name_e": "Congee, Kuay Chap, Boiled Noodles (Queue Card)", "latitude": 16.4290541, "longitude": 102.8338511, "rating": 4.3 }, "geometry": { "type": "Point", "coordinates": [ 102.8338511, 16.4290541 ] } },
{ "type": "Feature", "properties": { "name_t": "มิตรภาพลาบก้อย", "name_e": "Mittraphap Larb Koi", "latitude": 16.4599981, "longitude": 102.8314553, "rating": 4.1 }, "geometry": { "type": "Point", "coordinates": [ 102.8314553, 16.4599981 ] } },
{ "type": "Feature", "properties": { "name_t": "ปั้นแป้ง", "name_e": "Pan Paeng", "latitude": 16.4258102, "longitude": 102.8015456, "rating": 4.6 }, "geometry": { "type": "Point", "coordinates": [ 102.8015456, 16.4258102 ] } },
{ "type": "Feature", "properties": { "name_t": "ร้านอาหาร ประไพรสนามบิน", "name_e": "Prapai Airport Restaurant", "latitude": 16.4609531, "longitude": 102.7856284, "rating": 4.2 }, "geometry": { "type": "Point", "coordinates": [ 102.7856284, 16.4609531 ] } },
{ "type": "Feature", "properties": { "name_t": "มะลิ เค้กเกอรี่ โฮมเมด", "name_e": "Mali Cakery Homemade", "latitude": 16.4623407, "longitude": 102.8365055, "rating": 4.6 }, "geometry": { "type": "Point", "coordinates": [ 102.8365055, 16.4623407 ] } },
{ "type": "Feature", "properties": { "name_t": "มาซากิ ขอนแก่น", "name_e": "Masaki Khon Kaen", "latitude": 16.4316497, "longitude": 102.8377994, "rating": 4.6 }, "geometry": { "type": "Point", "coordinates": [ 102.8377994, 16.4316497 ] } },
{ "type": "Feature", "properties": { "name_t": "อุซางิ อิซากายะ ร้านอาหารญี่ปุ่น ขอนแก่น", "name_e": "Usagi Izakaya Khon Kaen Japanese Restaurant", "latitude": 16.4363367, "longitude": 102.8199255, "rating": 4.7 }, "geometry": { "type": "Point", "coordinates": [ 102.8199255, 16.4363367 ] } },
{ "type": "Feature", "properties": { "name_t": "เฉียบชัย", "name_e": "Chiap Chai", "latitude": 16.4361788, "longitude": 102.8501603, "rating": 4.5 }, "geometry": { "type": "Point", "coordinates": [ 102.8501603, 16.4361788 ] } },
{ "type": "Feature", "properties": { "name_t": "ร้านอาหารทะเล ซีฟู้ด ขอนแก่น มินิมอล ซีฟู้ด บาย รัญจนา", "name_e": "Seafood Restaurant Khon Kaen MiniMal Seafood by Ranjana", "latitude": 16.4378028, "longitude": 102.8291002, "rating": 4.5 }, "geometry": { "type": "Point", "coordinates": [ 102.8291002, 16.4378028 ] } },
{ "type": "Feature", "properties": { "name_t": "ซุปเปอร์โจ๊กหม้อดิน โจ๊กขอนแก่น", "name_e": "Super Clay Pot Congee, Khon Kaen Congee", "latitude": 16.4210387, "longitude": 102.8330381, "rating": 4.7 }, "geometry": { "type": "Point", "coordinates": [ 102.8330381, 16.4210387 ] } },
{ "type": "Feature", "properties": { "name_t": "แหนมเนือง ลับแล สาขาขอนแก่น", "name_e": "Nam Nueang Lap Lae Khon Kaen Branch", "latitude": 16.4356536, "longitude": 102.8369979, "rating": 4.2 }, "geometry": { "type": "Point", "coordinates": [ 102.8369979, 16.4356536 ] } },
{ "type": "Feature", "properties": { "name_t": "ไก่ย่างระเบียบ", "name_e": "Kai Yang Rabiap", "latitude": 16.4418269, "longitude": 102.8308195, "rating": 4.2 }, "geometry": { "type": "Point", "coordinates": [ 102.8308195, 16.4418269 ] } },
{ "type": "Feature", "properties": { "name_t": "อิน เดอะ มิดเดิล บาย ไคเซน ขอนแก่น", "name_e": "In The Middle by Kaizen Khon Kaen", "latitude": 16.4190196, "longitude": 102.8187126, "rating": 4.4 }, "geometry": { "type": "Point", "coordinates": [ 102.8187126, 16.4190196 ] } },
{ "type": "Feature", "properties": { "name_t": "อู๋เซี่ยงจี้", "name_e": "Wu Xiang Ji", "latitude": 16.4313464, "longitude": 102.8363768, "rating": 4.2 }, "geometry": { "type": "Point", "coordinates": [ 102.8363768, 16.4313464 ] } },
{ "type": "Feature", "properties": { "name_t": "ฟูจิ มัทฉะ คาเฟ่", "name_e": "Fuji Matcha Cafe", "latitude": 16.4176012, "longitude": 102.8322623, "rating": 4.6 }, "geometry": { "type": "Point", "coordinates": [ 102.8322623, 16.4176012 ] } },
{ "type": "Feature", "properties": { "name_t": "ไซ แอนด์ เลควิว ร้านอาหารริมบึงหนองโคตร ขอนแก่น", "name_e": "Sai Lakeview Bueng Nong Khot Lakeside", "latitude": 16.4264111, "longitude": 102.8006326, "rating": 4.4 }, "geometry": { "type": "Point", "coordinates": [ 102.8006326, 16.4264111 ] } },
{ "type": "Feature", "properties": { "name_t": "ข้าวซอยแม่ลำไย ขอนแก่น", "name_e": "Khao Soi Mae Lamyai Khon Kaen", "latitude": 16.4371591, "longitude": 102.833657, "rating": 4.8 }, "geometry": { "type": "Point", "coordinates": [ 102.833657, 16.4371591 ] } },
{ "type": "Feature", "properties": { "name_t": "ทองการ์เด้น ร้านอาหาร", "name_e": "Thong Garden Restaurant", "latitude": 16.4195172, "longitude": 102.8402521, "rating": 4.4 }, "geometry": { "type": "Point", "coordinates": [ 102.8402521, 16.4195172 ] } },
{ "type": "Feature", "properties": { "name_t": "ภัตตาคารบัวหลวง", "name_e": "Bua Luang Restaurant", "latitude": 16.4180665, "longitude": 102.83848, "rating": 4.1 }, "geometry": { "type": "Point", "coordinates": [ 102.83848, 16.4180665 ] } },
{ "type": "Feature", "properties": { "name_t": "พิซซ่า แอนด์ เบค", "name_e": "Pizza & Bake", "latitude": 16.4399781, "longitude": 102.8243932, "rating": 4.3 }, "geometry": { "type": "Point", "coordinates": [ 102.8243932, 16.4399781 ] } },
{ "type": "Feature", "properties": { "name_t": "ซอกสน อาหารเช้า ต้มเลือดหมู", "name_e": "Sok Son Breakfast, Pork Blood Soup", "latitude": 16.4354784, "longitude": 102.8526743, "rating": 4.5 }, "geometry": { "type": "Point", "coordinates": [ 102.8526743, 16.4354784 ] } },
{ "type": "Feature", "properties": { "name_t": "ร้านลักษณ์อาหารเช้า", "name_e": "Lak Breakfast Restaurant", "latitude": 16.4222528, "longitude": 102.8371506, "rating": 4.2 }, "geometry": { "type": "Point", "coordinates": [ 102.8371506, 16.4222528 ] } },
{ "type": "Feature", "properties": { "name_t": "ไก่ย่างปรีชา", "name_e": "Preecha Grilled Chicken", "latitude": 16.4675286, "longitude": 102.8133394, "rating": 4.2 }, "geometry": { "type": "Point", "coordinates": [ 102.8133394, 16.4675286 ] } },
{ "type": "Feature", "properties": { "name_t": "ศรีบราวน์ คอฟฟี่ โรสเตอรี่", "name_e": "Sri Brown Coffee Roastery", "latitude": 16.4603999, "longitude": 102.8284119, "rating": 4.5 }, "geometry": { "type": "Point", "coordinates": [ 102.8284119, 16.4603999 ] } },
{ "type": "Feature", "properties": { "name_t": "ผัดผัด สาขาขอนแก่น", "name_e": "Phat Phat Khon Kaen Branch", "latitude": 16.4356803, "longitude": 102.8196411, "rating": 4.4 }, "geometry": { "type": "Point", "coordinates": [ 102.8196411, 16.4356803 ] } },
{ "type": "Feature", "properties": { "name_t": "ร้านคัม ชาบู ปิ้งย่าง โคขุนโพนยางคำ", "name_e": "Kham Shabu Grill Phon Yang Kham Fattened Beef", "latitude": 16.4393557, "longitude": 102.7770967, "rating": 4.9 }, "geometry": { "type": "Point", "coordinates": [ 102.7770967, 16.4393557 ] } },
{ "type": "Feature", "properties": { "name_t": "ดีเอ็น แหนมเนือง", "name_e": "DN Nam Nueang", "latitude": 16.4098506, "longitude": 102.8335088, "rating": 4.3 }, "geometry": { "type": "Point", "coordinates": [ 102.8335088, 16.4098506 ] } },
{ "type": "Feature", "properties": { "name_t": "บ็อกซ์วูด ขอนแก่น", "name_e": "Boxwood Khon Kaen", "latitude": 16.435146, "longitude": 102.819512, "rating": 4.5 }, "geometry": { "type": "Point", "coordinates": [ 102.819512, 16.435146 ] } },
{ "type": "Feature", "properties": { "name_t": "แจ่วฮ้อนน้ำพอง", "name_e": "Jaew Hon Nam Phong", "latitude": 16.421422, "longitude": 102.8369736, "rating": 4.5 }, "geometry": { "type": "Point", "coordinates": [ 102.8369736, 16.421422 ] } },
{ "type": "Feature", "properties": { "name_t": "ร้านข้าวเปียก สาขาขอนแก่น", "name_e": "Khao Piak Restaurant Khon Kaen Branch", "latitude": 16.413521, "longitude": 102.8314059, "rating": 4.3 }, "geometry": { "type": "Point", "coordinates": [ 102.8314059, 16.413521 ] } },
{ "type": "Feature", "properties": { "name_t": "สุกี้มอลล์ไลท์ ตลาดจอมพลขอนแก่น", "name_e": "Suki Mall", "latitude": 16.4497475, "longitude": 102.842406, "rating": 4.6 }, "geometry": { "type": "Point", "coordinates": [ 102.842406, 16.4497475 ] } },
{ "type": "Feature", "properties": { "name_t": "เทียนเทียนติ่มซำ", "name_e": "Tian Tian Dim Sum", "latitude": 16.4293612, "longitude": 102.8366017, "rating": 4.4 }, "geometry": { "type": "Point", "coordinates": [ 102.8366017, 16.4293612 ] } },
{ "type": "Feature", "properties": { "name_t": "ชางหลง คาเฟ่ แอนด์ เรสเตอรองต์", "name_e": "Changlong Cafe & Restaurant", "latitude": 16.4309383, "longitude": 102.835787, "rating": 4.1 }, "geometry": { "type": "Point", "coordinates": [ 102.835787, 16.4309383 ] } },
{ "type": "Feature", "properties": { "name_t": "ดับเบิ้ลช็อต เอ็กซ์ ขอนแก่น", "name_e": "Doubleshot X Khon Kaen", "latitude": 16.422712, "longitude": 102.8377494, "rating": 4.4 }, "geometry": { "type": "Point", "coordinates": [ 102.8377494, 16.422712 ] } },
{ "type": "Feature", "properties": { "name_t": "ลาบก้อยซอยนานา", "name_e": "Larb Koi Soi Nana", "latitude": 16.4798926, "longitude": 102.8163842, "rating": 4.8 }, "geometry": { "type": "Point", "coordinates": [ 102.8163842, 16.4798926 ] } },
{ "type": "Feature", "properties": { "name_t": "ชาม คิทเช่น รื่นรมย์", "name_e": "Charm Kitchen Ruenrom", "latitude": 16.425743, "longitude": 102.8318737, "rating": 4.9 }, "geometry": { "type": "Point", "coordinates": [ 102.8318737, 16.425743 ] } },
{ "type": "Feature", "properties": { "name_t": "มิดไนท์ ซูน", "name_e": "Midnight Soon", "latitude": 16.4567175, "longitude": 102.8256425, "rating": 4.8 }, "geometry": { "type": "Point", "coordinates": [ 102.8256425, 16.4567175 ] } },
{ "type": "Feature", "properties": { "name_t": "หม้อดินก๋วยจั๊บอุบล เจ้าเก่าหลัง มข.", "name_e": "Mo Din Kuay Chap Ubon, Original Shop Behind KKU", "latitude": 16.4875575, "longitude": 102.8157368, "rating": 4.6 }, "geometry": { "type": "Point", "coordinates": [ 102.8157368, 16.4875575 ] } },
{ "type": "Feature", "properties": { "name_t": "ร้านบ้านมอ", "name_e": "Baan Mor Restaurant", "latitude": 16.4828608, "longitude": 102.8191392, "rating": 4.6 }, "geometry": { "type": "Point", "coordinates": [ 102.8191392, 16.4828608 ] } },
{ "type": "Feature", "properties": { "name_t": "แจ่วฮ้อนอภิรมย์ สาขา มข.", "name_e": "Jaew Hon Aphirom KKU Branch", "latitude": 16.460159, "longitude": 102.830675, "rating": 4.4 }, "geometry": { "type": "Point", "coordinates": [ 102.830675, 16.460159 ] } },
{ "type": "Feature", "properties": { "name_t": "เอมโอช", "name_e": "Em Ot", "latitude": 16.4354806, "longitude": 102.8363057, "rating": 4.0 }, "geometry": { "type": "Point", "coordinates": [ 102.8363057, 16.4354806 ] } },
{ "type": "Feature", "properties": { "name_t": "ตำนัวครัวลูกชาย", "name_e": "Tam Nua Krua Luk Chai", "latitude": 16.4639715, "longitude": 102.8244875, "rating": 4.4 }, "geometry": { "type": "Point", "coordinates": [ 102.8244875, 16.4639715 ] } },
{ "type": "Feature", "properties": { "name_t": "วีที แหนมเนือง สาขาหลังมอ", "name_e": "VT Nam Nueang", "latitude": 16.4833211, "longitude": 102.8151587, "rating": 4.8 }, "geometry": { "type": "Point", "coordinates": [ 102.8151587, 16.4833211 ] } },
{ "type": "Feature", "properties": { "name_t": "สมิธ ฟรายด์ ชิคเก้น แอนด์ สเต็ก", "name_e": "Smith Fried Chicken & Steak", "latitude": 16.4816649, "longitude": 102.8191129, "rating": 4.8 }, "geometry": { "type": "Point", "coordinates": [ 102.8191129, 16.4816649 ] } },
{ "type": "Feature", "properties": { "name_t": "ครัวหม้อดิน หลัง มข.", "name_e": "Clay Pot Kitchen Behind KKU", "latitude": 16.4849039, "longitude": 102.8177867, "rating": 4.1 }, "geometry": { "type": "Point", "coordinates": [ 102.8177867, 16.4849039 ] } },
{ "type": "Feature", "properties": { "name_t": "พินรี หมี่ไก่ฉีก", "name_e": "PINARE - Shredded Chicken Noodles", "latitude": 16.4841252, "longitude": 102.8160356, "rating": 5.0 }, "geometry": { "type": "Point", "coordinates": [ 102.8160356, 16.4841252 ] } },
{ "type": "Feature", "properties": { "name_t": "นวลสุกี้ ขอนแก่น", "name_e": "Nuan Suki Khon Kaen", "latitude": 16.4602622, "longitude": 102.8307972, "rating": 4.8 }, "geometry": { "type": "Point", "coordinates": [ 102.8307972, 16.4602622 ] } },
{ "type": "Feature", "properties": { "name_t": "คือลือ หลัง มข.", "name_e": "Khue Lue Behind KKU", "latitude": 16.4798922, "longitude": 102.8150126, "rating": 4.9 }, "geometry": { "type": "Point", "coordinates": [ 102.8150126, 16.4798922 ] } },
{ "type": "Feature", "properties": { "name_t": "ร้านอาหารอิสาน ย่าน ม.ขอนแก่น", "name_e": "Isan Restaurant near Khon Kaen University", "latitude": 16.4816441, "longitude": 102.81979, "rating": 4.7 }, "geometry": { "type": "Point", "coordinates": [ 102.81979, 16.4816441 ] } },
{ "type": "Feature", "properties": { "name_t": "ครัวใต้หอ", "name_e": "Under the Dorm Kitchen", "latitude": 16.4621342, "longitude": 102.8235994, "rating": 5.0 }, "geometry": { "type": "Point", "coordinates": [ 102.8235994, 16.4621342 ] } },
{ "type": "Feature", "properties": { "name_t": "ไดโนเกี๊ยว (ไดโนเกียวซ่า) โดย ครัวญี่ปุ่น", "name_e": "Dino Gyoza by Japanese Kitchen", "latitude": 16.4791355, "longitude": 102.8100767, "rating": 5.0 }, "geometry": { "type": "Point", "coordinates": [ 102.8100767, 16.4791355 ] } },
{ "type": "Feature", "properties": { "name_t": "เซนจัง มข.", "name_e": "Senjan KKU", "latitude": 16.4841998, "longitude": 102.81638, "rating": 5.0 }, "geometry": { "type": "Point", "coordinates": [ 102.81638, 16.4841998 ] } },
{ "type": "Feature", "properties": { "name_t": "ฟู่หยวนหม่าล่าเสฉวน สาขาขอนแก่น", "name_e": "Fuyuan Mala Sichuan Khon Kaen Branch", "latitude": 16.4832902, "longitude": 102.8163777, "rating": 4.9 }, "geometry": { "type": "Point", "coordinates": [ 102.8163777, 16.4832902 ] } },
{ "type": "Feature", "properties": { "name_t": "ข้าวเหลือเกลืออิ่ม สาขาหลังมอ", "name_e": "Khao Luea Kluea Im", "latitude": 16.482706, "longitude": 102.8162482, "rating": 4.5 }, "geometry": { "type": "Point", "coordinates": [ 102.8162482, 16.482706 ] } },
{ "type": "Feature", "properties": { "name_t": "อังเคิล ดั๊ก คอฟฟี่ ช็อป แอนด์ เรสเตอรองต์", "name_e": "Uncle Duck", "latitude": 16.4797187, "longitude": 102.8510297, "rating": 4.7 }, "geometry": { "type": "Point", "coordinates": [ 102.8510297, 16.4797187 ] } },
{ "type": "Feature", "properties": { "name_t": "ขนมจีนโคตรข้น สาขา มข.", "name_e": "Khanom Chin Khot Khon KKU Branch", "latitude": 16.4821959, "longitude": 102.8189166, "rating": 4.9 }, "geometry": { "type": "Point", "coordinates": [ 102.8189166, 16.4821959 ] } },
{ "type": "Feature", "properties": { "name_t": "กั๊ดต๊อง", "name_e": "Kat Tong", "latitude": 16.4798885, "longitude": 102.8170737, "rating": 4.5 }, "geometry": { "type": "Point", "coordinates": [ 102.8170737, 16.4798885 ] } },
{ "type": "Feature", "properties": { "name_t": "ร้าน ตี 5 เบรกฟาสต์", "name_e": "5 A.M. Breakfast Restaurant", "latitude": 16.4822949, "longitude": 102.8193186, "rating": 4.4 }, "geometry": { "type": "Point", "coordinates": [ 102.8193186, 16.4822949 ] } },
{ "type": "Feature", "properties": { "name_t": "ก๋วยเตี๋ยวออนซอน สาขา หลังมข.", "name_e": "Onsen Noodles Behind KKU Branch", "latitude": 16.4818511, "longitude": 102.8192884, "rating": 4.9 }, "geometry": { "type": "Point", "coordinates": [ 102.8192884, 16.4818511 ] } },
{ "type": "Feature", "properties": { "name_t": "มวลสารความอร่อย", "name_e": "Muan San Khwam Aroi", "latitude": 16.4343174, "longitude": 102.8381067, "rating": 4.7 }, "geometry": { "type": "Point", "coordinates": [ 102.8381067, 16.4343174 ] } },
{ "type": "Feature", "properties": { "name_t": "ซุปผักลาวสวนเกษตร มข", "name_e": "Lao Vegetable Soup Suan Kaset KKU", "latitude": 16.4650782, "longitude": 102.8131203, "rating": 5.0 }, "geometry": { "type": "Point", "coordinates": [ 102.8131203, 16.4650782 ] } },
{ "type": "Feature", "properties": { "name_t": "เดอ เรด บริค มข.", "name_e": "De Red Brick KKU", "latitude": 16.4774622, "longitude": 102.8316853, "rating": 4.4 }, "geometry": { "type": "Point", "coordinates": [ 102.8316853, 16.4774622 ] } },
{ "type": "Feature", "properties": { "name_t": "แดจังกึม กังสดาล", "name_e": "Dae Jang Geum Kangsadan", "latitude": 16.4648274, "longitude": 102.8241363, "rating": 4.2 }, "geometry": { "type": "Point", "coordinates": [ 102.8241363, 16.4648274 ] } },
{ "type": "Feature", "properties": { "name_t": "กะขม", "name_e": "Ka Khom", "latitude": 16.4942258, "longitude": 102.8180363, "rating": 4.0 }, "geometry": { "type": "Point", "coordinates": [ 102.8180363, 16.4942258 ] } },
{ "type": "Feature", "properties": { "name_t": "ครัวริมน้ำ ร้านอาหาร", "name_e": "Riverside Kitchen Restaurant", "latitude": 16.4913834, "longitude": 102.8261433, "rating": 4.3 }, "geometry": { "type": "Point", "coordinates": [ 102.8261433, 16.4913834 ] } },
{ "type": "Feature", "properties": { "name_t": "ร้านเคี้ยง ราดหน้าศรีจันทร์ ศูนย์อาหารและบริการ 4", "name_e": "Khiang Rad Na Si Chan, Food and Service Center 4", "latitude": 16.4739566, "longitude": 102.8265012, "rating": 4.4 }, "geometry": { "type": "Point", "coordinates": [ 102.8265012, 16.4739566 ] } },
{ "type": "Feature", "properties": { "name_t": "ร้านลุงแว่น", "name_e": "Lung Waen Restaurant", "latitude": 16.4641171, "longitude": 102.8280983, "rating": 4.9 }, "geometry": { "type": "Point", "coordinates": [ 102.8280983, 16.4641171 ] } },
{ "type": "Feature", "properties": { "name_t": "ครัวเด็กหอ", "name_e": "Dorm Kitchen", "latitude": 16.460348, "longitude": 102.8273143, "rating": 5.0 }, "geometry": { "type": "Point", "coordinates": [ 102.8273143, 16.460348 ] } },
{ "type": "Feature", "properties": { "name_t": "ตำเมียป๋า", "name_e": "Tam Mia Pa", "latitude": 16.4818618, "longitude": 102.8130487, "rating": 4.5 }, "geometry": { "type": "Point", "coordinates": [ 102.8130487, 16.4818618 ] } },
{ "type": "Feature", "properties": { "name_t": "เซียนขาหมู สุกี้ ริมรั้ว มข. กังสดาล", "name_e": "Sian Khamu Suki Beside KKU Fence Kangsadan", "latitude": 16.4648075, "longitude": 102.8257022, "rating": 4.8 }, "geometry": { "type": "Point", "coordinates": [ 102.8257022, 16.4648075 ] } },
{ "type": "Feature", "properties": { "name_t": "ออลกู๊ด โฮมเมด พาสต้า สาขา กังสดาล", "name_e": "Allgood Homemade Pasta", "latitude": 16.458515, "longitude": 102.8238484, "rating": 4.7 }, "geometry": { "type": "Point", "coordinates": [ 102.8238484, 16.458515 ] } },
{ "type": "Feature", "properties": { "name_t": "แซ่บดาดปาก สุกี้กระทะร้อน", "name_e": "Saeb Dat Pak Hot Pan Suki", "latitude": 16.4851242, "longitude": 102.8163885, "rating": 4.4 }, "geometry": { "type": "Point", "coordinates": [ 102.8163885, 16.4851242 ] } },
{ "type": "Feature", "properties": { "name_t": "ฟาร์มสุข มาร์เก็ต คาเฟ่", "name_e": "Farm Suk Market Cafe", "latitude": 16.4662622, "longitude": 102.8146834, "rating": 4.2 }, "geometry": { "type": "Point", "coordinates": [ 102.8146834, 16.4662622 ] } },
{ "type": "Feature", "properties": { "name_t": "รสดีย์", "name_e": "Ros Dee", "latitude": 16.4599161, "longitude": 102.8279738, "rating": 4.5 }, "geometry": { "type": "Point", "coordinates": [ 102.8279738, 16.4599161 ] } },
{ "type": "Feature", "properties": { "name_t": "ชิวเล้า", "name_e": "Chiu Lao", "latitude": 16.4579781, "longitude": 102.8239035, "rating": 4.5 }, "geometry": { "type": "Point", "coordinates": [ 102.8239035, 16.4579781 ] } },
{ "type": "Feature", "properties": { "name_t": "คาเฟ่ เดอ ฟอเรสต์", "name_e": "Cafe Der Forest", "latitude": 16.4406049, "longitude": 102.8347061, "rating": 4.3 }, "geometry": { "type": "Point", "coordinates": [ 102.8347061, 16.4406049 ] } },
{ "type": "Feature", "properties": { "name_t": "ร้านครัวสุดา", "name_e": "Krua Suda", "latitude": 16.42621, "longitude": 102.8296022, "rating": 4.0 }, "geometry": { "type": "Point", "coordinates": [ 102.8296022, 16.42621 ] } },
{ "type": "Feature", "properties": { "name_t": "ร้านเจวีแกน", "name_e": "Jay Vegan", "latitude": 16.480149, "longitude": 102.8184283, "rating": 4.8 }, "geometry": { "type": "Point", "coordinates": [ 102.8184283, 16.480149 ] } },
{ "type": "Feature", "properties": { "name_t": "ธนาตย์ การลาบ", "name_e": "Thanat Kan Larb", "latitude": 16.4891483, "longitude": 102.8149227, "rating": 4.3 }, "geometry": { "type": "Point", "coordinates": [ 102.8149227, 16.4891483 ] } },
{ "type": "Feature", "properties": { "name_t": "ชาตรามือ", "name_e": "Cha Tra Mue", "latitude": 16.4853361, "longitude": 102.8172133, "rating": 5.0 }, "geometry": { "type": "Point", "coordinates": [ 102.8172133, 16.4853361 ] } },
{ "type": "Feature", "properties": { "name_t": "อัมพรแหนมเนือง ต้นตำรับ", "name_e": "Amporn Nam Nueang Original Recipe", "latitude": 16.4334198, "longitude": 102.836042, "rating": 4.4 }, "geometry": { "type": "Point", "coordinates": [ 102.836042, 16.4334198 ] } },
{ "type": "Feature", "properties": { "name_t": "ร้านปลาวาฬใจดี สุกี้&ชาบู สาขากังสดาล", "name_e": "Kind Whale Suki & Shabu Kangsadan Branch", "latitude": 16.459649, "longitude": 102.8234119, "rating": 4.3 }, "geometry": { "type": "Point", "coordinates": [ 102.8234119, 16.459649 ] } },
{ "type": "Feature", "properties": { "name_t": "ร้านโจ๋น", "name_e": "Joan Restaurant", "latitude": 16.4816189, "longitude": 102.8150671, "rating": 4.4 }, "geometry": { "type": "Point", "coordinates": [ 102.8150671, 16.4816189 ] } },
{ "type": "Feature", "properties": { "name_t": "ลาบโต๊ะแดง", "name_e": "Larb To Daeng", "latitude": 16.4310329, "longitude": 102.8337861, "rating": 4.7 }, "geometry": { "type": "Point", "coordinates": [ 102.8337861, 16.4310329 ] } },
{ "type": "Feature", "properties": { "name_t": "ข้าวผัดปู สเปเชียล", "name_e": "Special Crab Fried Rice Khon Kaen", "latitude": 16.4060931, "longitude": 102.8374195, "rating": 4.4 }, "geometry": { "type": "Point", "coordinates": [ 102.8374195, 16.4060931 ] } },
{ "type": "Feature", "properties": { "name_t": "ทีอี ฟู้ด สเตชั่น", "name_e": "TE Food Station", "latitude": 16.4742044, "longitude": 102.8207575, "rating": 5.0 }, "geometry": { "type": "Point", "coordinates": [ 102.8207575, 16.4742044 ] } },
{ "type": "Feature", "properties": { "name_t": "มาเด้อยาย", "name_e": "MaDerYaay", "latitude": 16.476676, "longitude": 102.8205776, "rating": 5.0 }, "geometry": { "type": "Point", "coordinates": [ 102.8205776, 16.476676 ] } },
{ "type": "Feature", "properties": { "name_t": "ร้านยายริน", "name_e": "Yai Rin", "latitude": 16.4368051, "longitude": 102.8398129, "rating": 4.5 }, "geometry": { "type": "Point", "coordinates": [ 102.8398129, 16.4368051 ] } },
{ "type": "Feature", "properties": { "name_t": "วัคคา อิตาเลี่ยน เรสเตอรองต์", "name_e": "Vacca Italian Restaurant", "latitude": 16.4601832, "longitude": 102.7859179, "rating": 4.2 }, "geometry": { "type": "Point", "coordinates": [ 102.7859179, 16.4601832 ] } },
{ "type": "Feature", "properties": { "name_t": "กิน ชิล เคเคซี", "name_e": "Kin Chill KKC", "latitude": 16.4619845, "longitude": 102.8272746, "rating": 5.0 }, "geometry": { "type": "Point", "coordinates": [ 102.8272746, 16.4619845 ] } },
{ "type": "Feature", "properties": { "name_t": "เกาเหลาเนื้อกิ่งเพชร", "name_e": "Kao Lao Nuea King Phet", "latitude": 16.4361247, "longitude": 102.8384115, "rating": 4.5 }, "geometry": { "type": "Point", "coordinates": [ 102.8384115, 16.4361247 ] } },
{ "type": "Feature", "properties": { "name_t": "พิสมัย", "name_e": "Phitsamai", "latitude": 16.4806468, "longitude": 102.812938, "rating": 4.7 }, "geometry": { "type": "Point", "coordinates": [ 102.812938, 16.4806468 ] } },
{ "type": "Feature", "properties": { "name_t": "ส้มตำ รสไทย", "name_e": "Som Tam Rot Thai", "latitude": 16.4809511, "longitude": 102.8180256, "rating": 4.6 }, "geometry": { "type": "Point", "coordinates": [ 102.8180256, 16.4809511 ] } },
{ "type": "Feature", "properties": { "name_t": "ศรีบราวน์ คาเฟ่ มข", "name_e": "Sri Brown Cafe KKU", "latitude": 16.4774881, "longitude": 102.8232564, "rating": 4.3 }, "geometry": { "type": "Point", "coordinates": [ 102.8232564, 16.4774881 ] } },
{ "type": "Feature", "properties": { "name_t": "ขอนแก่น แสนแซ่บ", "name_e": "Khon Kaen Saen Saeb", "latitude": 16.4808368, "longitude": 102.8154374, "rating": 4.4 }, "geometry": { "type": "Point", "coordinates": [ 102.8154374, 16.4808368 ] } },
{ "type": "Feature", "properties": { "name_t": "ตำเฮือนเฮา", "name_e": "Tam Huean Hao", "latitude": 16.4827114, "longitude": 102.815719, "rating": 4.5 }, "geometry": { "type": "Point", "coordinates": [ 102.815719, 16.4827114 ] } },
{ "type": "Feature", "properties": { "name_t": "ครัวเวียดนาม", "name_e": "Vietnamese Kitchen", "latitude": 16.4353533, "longitude": 102.8362929, "rating": 3.9 }, "geometry": { "type": "Point", "coordinates": [ 102.8362929, 16.4353533 ] } },
{ "type": "Feature", "properties": { "name_t": "เนื้อย่างโคขุน มข. ฟาร์มมิลี่", "name_e": "Grilled Fattened Beef KKU Farmily", "latitude": 16.4656654, "longitude": 102.8255226, "rating": 4.6 }, "geometry": { "type": "Point", "coordinates": [ 102.8255226, 16.4656654 ] } },
{ "type": "Feature", "properties": { "name_t": "เดซี่ แรบบิท บุฟเฟต์", "name_e": "Daisy Rabbit Buffet", "latitude": 16.48012, "longitude": 102.8136464, "rating": 4.4 }, "geometry": { "type": "Point", "coordinates": [ 102.8136464, 16.48012 ] } },
{ "type": "Feature", "properties": { "name_t": "ครัวมารุม", "name_e": "Krua Marum", "latitude": 16.4618617, "longitude": 102.8373266, "rating": 4.5 }, "geometry": { "type": "Point", "coordinates": [ 102.8373266, 16.4618617 ] } },
{ "type": "Feature", "properties": { "name_t": "ผัดไทยไร้เส้น ตลาดมอดินแดง มข", "name_e": "Noodle-less Pad Thai", "latitude": 16.479537, "longitude": 102.8229328, "rating": 4.3 }, "geometry": { "type": "Point", "coordinates": [ 102.8229328, 16.479537 ] } },
{ "type": "Feature", "properties": { "name_t": "ร้านอิ่มแปล้ กะเพราคั่วโบราณ", "name_e": "Im Plae", "latitude": 16.4817412, "longitude": 102.8175867, "rating": 4.4 }, "geometry": { "type": "Point", "coordinates": [ 102.8175867, 16.4817412 ] } },
{ "type": "Feature", "properties": { "name_t": "มิโยอิ ขอนแก่นหลัง มข.", "name_e": "Miyoi", "latitude": 16.4819098, "longitude": 102.815955, "rating": 4.3 }, "geometry": { "type": "Point", "coordinates": [ 102.815955, 16.4819098 ] } },
{ "type": "Feature", "properties": { "name_t": "สะแตกยำ เซ็นทรัลขอนแก่น", "name_e": "Sataek Yam", "latitude": 16.4323667, "longitude": 102.8250588, "rating": 4.1 }, "geometry": { "type": "Point", "coordinates": [ 102.8250588, 16.4323667 ] } },
{ "type": "Feature", "properties": { "name_t": "ครัวคุณลุง", "name_e": "Uncle's Kitchen", "latitude": 16.4812401, "longitude": 102.817667, "rating": 4.4 }, "geometry": { "type": "Point", "coordinates": [ 102.817667, 16.4812401 ] } },
{ "type": "Feature", "properties": { "name_t": "ดีพ อันเดอร์กราวด์ เฟลเวอร์ส มข.", "name_e": "DEEP Underground Flavors KKU", "latitude": 16.4856849, "longitude": 102.8161328, "rating": 4.8 }, "geometry": { "type": "Point", "coordinates": [ 102.8161328, 16.4856849 ] } },
{ "type": "Feature", "properties": { "name_t": "ตำนัว ครัวลูกชาย สาขาหลัง มข", "name_e": "Tam Nua Krua Luk Chai", "latitude": 16.4853362, "longitude": 102.8164142, "rating": 4.0 }, "geometry": { "type": "Point", "coordinates": [ 102.8164142, 16.4853362 ] } },
{ "type": "Feature", "properties": { "name_t": "อ.ข้าวมันไก่สิงคโปร์", "name_e": "Aor Singapore Chicken Rice", "latitude": 16.4790082, "longitude": 102.8118639, "rating": 5.0 }, "geometry": { "type": "Point", "coordinates": [ 102.8118639, 16.4790082 ] } },
{ "type": "Feature", "properties": { "name_t": "ร้านลาบพี่แก้ว โคลัมโบ มข", "name_e": "Larb Phi Kaeo Colombo KKU", "latitude": 16.4815377, "longitude": 102.8029956, "rating": 4.0 }, "geometry": { "type": "Point", "coordinates": [ 102.8029956, 16.4815377 ] } },
{ "type": "Feature", "properties": { "name_t": "กิมเต็ก นมสด", "name_e": "Kim Tek Fresh Milk", "latitude": 16.4813497, "longitude": 102.8174306, "rating": 4.5 }, "geometry": { "type": "Point", "coordinates": [ 102.8174306, 16.4813497 ] } }
]
}
