{
"type": "FeatureCollection",
"name": "store",
"crs": { "type": "name", "properties": { "name": "urn:ogc:def:crs:OGC:1.3:CRS84" } },
"features": [
{ "type": "Feature", "properties": { "name_t": "เซเว่น กลางเมือง", "name_e": "7-Eleven Klang Mueang", "branch_id": 1122, "latitude": 16.4348745, "longitude": 102.8359778 }, "geometry": { "type": "Point", "coordinates": [ 102.8359778, 16.4348745 ] } },
{ "type": "Feature", "properties": { "name_t": "เซเว่น อาชีวะขอนแก่น", "name_e": "7-Eleven Khon Kaen Vocational", "branch_id": 2684, "latitude": 16.4368833, "longitude": 102.8382511 }, "geometry": { "type": "Point", "coordinates": [ 102.8382511, 16.4368833 ] } },
{ "type": "Feature", "properties": { "name_t": "เซเว่น อดุลยาราม ซอย 1", "name_e": "7-Eleven Adulyaram Soi 1", "branch_id": 17251, "latitude": 16.4627515, "longitude": 102.8277619 }, "geometry": { "type": "Point", "coordinates": [ 102.8277619, 16.4627515 ] } },
{ "type": "Feature", "properties": { "name_t": "เซเว่น ขอนแก่น", "name_e": "7-Eleven Khon Kaen", "branch_id": 11852, "latitude": 16.4410003, "longitude": 102.8216208 }, "geometry": { "type": "Point", "coordinates": [ 102.8216208, 16.4410003 ] } },
{ "type": "Feature", "properties": { "name_t": "เซเว่น โรงแรมโฆษะ", "name_e": "7-Eleven Kosa Hotel", "branch_id": 7366, "latitude": 16.4297587, "longitude": 102.8312727 }, "geometry": { "type": "Point", "coordinates": [ 102.8312727, 16.4297587 ] } },
{ "type": "Feature", "properties": { "name_t": "เซเว่น รพ.กรุงเทพ-ขอนแก่น", "name_e": "7-Eleven Bangkok Hospital Khon Kaen", "branch_id": 11111, "latitude": 16.4423134, "longitude": 102.8199338 }, "geometry": { "type": "Point", "coordinates": [ 102.8199338, 16.4423134 ] } },
{ "type": "Feature", "properties": { "name_t": "เซเว่น ตลาดโนนม่วง", "name_e": "7-Eleven Non Muang Market", "branch_id": 14339, "latitude": 16.4866344, "longitude": 102.8157301 }, "geometry": { "type": "Point", "coordinates": [ 102.8157301, 16.4866344 ] } },
{ "type": "Feature", "properties": { "name_t": "เซเว่น ชุมชนหนองคู", "name_e": "7-Eleven Nong Khu Community", "branch_id": 13904, "latitude": 16.4321944, "longitude": 102.8410091 }, "geometry": { "type": "Point", "coordinates": [ 102.8410091, 16.4321944 ] } },
{ "type": "Feature", "properties": { "name_t": "เซเว่น ชุมชนหนองไผ่", "name_e": "7-Eleven Nong Phai Community", "branch_id": 5362, "latitude": 16.485534, "longitude": 102.8430875 }, "geometry": { "type": "Point", "coordinates": [ 102.8430875, 16.485534 ] } },
{ "type": "Feature", "properties": { "name_t": "เซเว่น เมืองขอนแก่น", "name_e": "7-Eleven Mueang Khon Kaen", "branch_id": 8886, "latitude": 16.4526571, "longitude": 102.8318641 }, "geometry": { "type": "Point", "coordinates": [ 102.8318641, 16.4526571 ] } },
{ "type": "Feature", "properties": { "name_t": "เซเว่น ปริ้นเซส", "name_e": "7-Eleven Princess", "branch_id": 1363, "latitude": 16.4305941, "longitude": 102.832539 }, "geometry": { "type": "Point", "coordinates": [ 102.832539, 16.4305941 ] } },
{ "type": "Feature", "properties": { "name_t": "เซเว่น ศูนย์อาหาร 2 มข.", "name_e": "7-Eleven KKU Food Center 2", "branch_id": 14894, "latitude": 16.4781939, "longitude": 102.8199731 }, "geometry": { "type": "Point", "coordinates": [ 102.8199731, 16.4781939 ] } },
{ "type": "Feature", "properties": { "name_t": "เซเว่น ศรีพัชรินทร์", "name_e": "7-Eleven Si Patcharin", "branch_id": 3651, "latitude": 16.4572941, "longitude": 102.8436883 }, "geometry": { "type": "Point", "coordinates": [ 102.8436883, 16.4572941 ] } },
{ "type": "Feature", "properties": { "name_t": "เซเว่น อดุลซิตี้", "name_e": "7-Eleven Adul City", "branch_id": 13571, "latitude": 16.4600404, "longitude": 102.8247777 }, "geometry": { "type": "Point", "coordinates": [ 102.8247777, 16.4600404 ] } },
{ "type": "Feature", "properties": { "name_t": "เซเว่น หลังศูนย์ราชการขอนแก่น", "name_e": "7-Eleven Behind Khon Kaen Government Center", "branch_id": 14946, "latitude": 16.4479559, "longitude": 102.8331717 }, "geometry": { "type": "Point", "coordinates": [ 102.8331717, 16.4479559 ] } },
{ "type": "Feature", "properties": { "name_t": "เซเว่น อดุลยาราม", "name_e": "7-Eleven Adulyaram", "branch_id": 4673, "latitude": 16.460131, "longitude": 102.8279631 }, "geometry": { "type": "Point", "coordinates": [ 102.8279631, 16.460131 ] } },
{ "type": "Feature", "properties": { "name_t": "เซเว่น ตลาดสามเหลี่ยม", "name_e": "7-Eleven Sam Liam Market", "branch_id": 4607, "latitude": 16.445804, "longitude": 102.824221 }, "geometry": { "type": "Point", "coordinates": [ 102.824221, 16.445804 ] } },
{ "type": "Feature", "properties": { "name_t": "เซเว่น ร้านค้าสวัสดิการ 1", "name_e": "7-Eleven Welfare Store 1", "branch_id": 13092, "latitude": 16.4685967, "longitude": 102.8296805 }, "geometry": { "type": "Point", "coordinates": [ 102.8296805, 16.4685967 ] } },
{ "type": "Feature", "properties": { "name_t": "เซเว่น ถนนกัลปพฤกษ์ มข.", "name_e": "7-Eleven Kalaphruek Road KKU", "branch_id": 16013, "latitude": 16.4463885, "longitude": 102.8200347 }, "geometry": { "type": "Point", "coordinates": [ 102.8200347, 16.4463885 ] } },
{ "type": "Feature", "properties": { "name_t": "เซเว่น หลัง มข. เรสซิเดนซ์", "name_e": "7-Eleven Behind KKU Residence", "branch_id": 13979, "latitude": 16.4802561, "longitude": 102.8118345 }, "geometry": { "type": "Point", "coordinates": [ 102.8118345, 16.4802561 ] } },
{ "type": "Feature", "properties": { "name_t": "เซเว่น ศรีฐาน", "name_e": "7-Eleven Si Than", "branch_id": 4910, "latitude": 16.4342109, "longitude": 102.8145655 }, "geometry": { "type": "Point", "coordinates": [ 102.8145655, 16.4342109 ] } },
{ "type": "Feature", "properties": { "name_t": "เซเว่น ปกฉัตร", "name_e": "7-Eleven Pokchat", "branch_id": 3406, "latitude": 16.4379367, "longitude": 102.8278648 }, "geometry": { "type": "Point", "coordinates": [ 102.8278648, 16.4379367 ] } },
{ "type": "Feature", "properties": { "name_t": "เซเว่น ถนนมะลิวัลย์", "name_e": "7-Eleven Maliwan Road", "branch_id": 11086, "latitude": 16.4423197, "longitude": 102.8083016 }, "geometry": { "type": "Point", "coordinates": [ 102.8083016, 16.4423197 ] } },
{ "type": "Feature", "properties": { "name_t": "เซเว่น บึงหนองโคตรขอนแก่น", "name_e": "7-Eleven Bueng Nong Khot Khon Kaen", "branch_id": 13029, "latitude": 16.4379987, "longitude": 102.7868296 }, "geometry": { "type": "Point", "coordinates": [ 102.7868296, 16.4379987 ] } },
{ "type": "Feature", "properties": { "name_t": "เซเว่น ชุมชนสนามบินขอนแก่น", "name_e": "7-Eleven Khon Kaen Airport Community", "branch_id": 18728, "latitude": 16.4553119, "longitude": 102.7846319 }, "geometry": { "type": "Point", "coordinates": [ 102.7846319, 16.4553119 ] } },
{ "type": "Feature", "properties": { "name_t": "เซเว่น ชุมชน ร.8", "name_e": "7-Eleven Ror.8 Community", "branch_id": 17527, "latitude": 16.4513559, "longitude": 102.7955397 }, "geometry": { "type": "Point", "coordinates": [ 102.7955397, 16.4513559 ] } },
{ "type": "Feature", "properties": { "name_t": "เซเว่น โนนม่วงปาร์ค", "name_e": "7-Eleven Non Muang Park", "branch_id": 11004, "latitude": 16.4884554, "longitude": 102.8247778 }, "geometry": { "type": "Point", "coordinates": [ 102.8247778, 16.4884554 ] } },
{ "type": "Feature", "properties": { "name_t": "เซเว่น ร้านค้าสวัสดิการ 2", "name_e": "7-Eleven Welfare Store 2", "branch_id": 13185, "latitude": 16.4671243, "longitude": 102.8297352 }, "geometry": { "type": "Point", "coordinates": [ 102.8297352, 16.4671243 ] } },
{ "type": "Feature", "properties": { "name_t": "เซเว่น ตลาดคำไฮ", "name_e": "7-Eleven Kham Hai Market", "branch_id": 6898, "latitude": 16.4362689, "longitude": 102.7997075 }, "geometry": { "type": "Point", "coordinates": [ 102.7997075, 16.4362689 ] } },
{ "type": "Feature", "properties": { "name_t": "เซเว่น ชุมชนกสิกรทุ่งสร้าง", "name_e": "7-Eleven Kasikorn Thung Sang Community", "branch_id": 9144, "latitude": 16.448722, "longitude": 102.841044 }, "geometry": { "type": "Point", "coordinates": [ 102.841044, 16.448722 ] } },
{ "type": "Feature", "properties": { "name_t": "เซเว่น มิตรภาพ กังสดาล", "name_e": "7-Eleven Mittraphap Kangsadan", "branch_id": 15385, "latitude": 16.4517922, "longitude": 102.831072 }, "geometry": { "type": "Point", "coordinates": [ 102.831072, 16.4517922 ] } },
{ "type": "Feature", "properties": { "name_t": "เซเว่น ตลาดบ้านดอน", "name_e": "7-Eleven Ban Don Market", "branch_id": 9324, "latitude": 16.4533507, "longitude": 102.845216 }, "geometry": { "type": "Point", "coordinates": [ 102.845216, 16.4533507 ] } },
{ "type": "Feature", "properties": { "name_t": "เซเว่น ตลาด ร.8", "name_e": "7-Eleven Ror.8 Market", "branch_id": 18204, "latitude": 16.4556196, "longitude": 102.7971607 }, "geometry": { "type": "Point", "coordinates": [ 102.7971607, 16.4556196 ] } },
{ "type": "Feature", "properties": { "name_t": "เซเว่น ตลาดบัวทิพย์ กังสดาล", "name_e": "7-Eleven Bua Thip Market Kangsadan", "branch_id": 17015, "latitude": 16.4644884, "longitude": 102.8251826 }, "geometry": { "type": "Point", "coordinates": [ 102.8251826, 16.4644884 ] } },
{ "type": "Feature", "properties": { "name_t": "เซเว่น หน้าโรงพยาบาลศรีนครินทร์", "name_e": "7-Eleven Srinagarind Hospital", "branch_id": 13914, "latitude": 16.4682257, "longitude": 102.8325969 }, "geometry": { "type": "Point", "coordinates": [ 102.8325969, 16.4682257 ] } },
{ "type": "Feature", "properties": { "name_t": "เซเว่น มอดินแดง", "name_e": "7-Eleven Mo Din Daeng", "branch_id": 7499, "latitude": 16.4800624, "longitude": 102.8158451 }, "geometry": { "type": "Point", "coordinates": [ 102.8158451, 16.4800624 ] } }
]
}
